<?xml version="1.0" encoding="UTF-8"?>
<kml xmlns="http://www.opengis.net/kml/2.2" xmlns:gx="http://www.google.com/kml/ext/2.2" xmlns:kml="http://www.opengis.net/kml/2.2" xmlns:atom="http://www.w3.org/2005/Atom">
<Document>
	<name>Fishing_Locations.kml</name>
	<StyleMap id="m_ylw-pushpin">
		<Pair>
			<key>normal</key>
			<styleUrl>#s_ylw-pushpin</styleUrl>
		</Pair>
		<Pair>
			<key>highlight</key>
			<styleUrl>#s_ylw-pushpin_hl</styleUrl>
		</Pair>
	</StyleMap>
	<Style id="s_ylw-pushpin">
		<IconStyle>
			<scale>1.1</scale>
			<Icon>
				<href>http://maps.google.com/mapfiles/kml/pushpin/ylw-pushpin.png</href>
			</Icon>
			<hotSpot x="20" y="2" xunits="pixels" yunits="pixels"/>
		</IconStyle>
	</Style>
	<Style id="s_ylw-pushpin_hl">
		<IconStyle>
			<scale>1.3</scale>
			<Icon>
				<href>http://maps.google.com/mapfiles/kml/pushpin/ylw-pushpin.png</href>
			</Icon>
			<hotSpot x="20" y="2" xunits="pixels" yunits="pixels"/>
		</IconStyle>
	</Style>
	<Folder>
		<name>Temporary Places</name>
		<open>1</open>
		<Placemark>
			<name>L1</name>
			<Camera>
				<longitude>73.8553543263352</longitude>
				<latitude>18.53037095641544</latitude>
				<altitude>430.8814812697837</altitude>
				<heading>17.63202033646089</heading>
				<tilt>27.38573319167195</tilt>
				<roll>-1.904474466428615</roll>
				<gx:altitudeMode>relativeToSeaFloor</gx:altitudeMode>
			</Camera>
			<styleUrl>#m_ylw-pushpin</styleUrl>
			<Point>
				<gx:drawOrder>1</gx:drawOrder>
				<coordinates>73.85569452561296,18.53225346337331,0</coordinates>
			</Point>
		</Placemark>
		<Placemark>
			<name>L2</name>
			<Camera>
				<longitude>73.86819314372119</longitude>
				<latitude>18.53463475858327</latitude>
				<altitude>889.7927848913793</altitude>
				<heading>14.53616409798629</heading>
				<tilt>29.99999998689049</tilt>
				<roll>-2.246920297030627</roll>
				<gx:altitudeMode>relativeToSeaFloor</gx:altitudeMode>
			</Camera>
			<styleUrl>#m_ylw-pushpin</styleUrl>
			<Point>
				<gx:drawOrder>1</gx:drawOrder>
				<coordinates>73.87301588635238,18.54035507217049,0</coordinates>
			</Point>
		</Placemark>
		<Placemark>
			<name>L3</name>
			<Camera>
				<longitude>73.8831016907196</longitude>
				<latitude>18.53316340695234</latitude>
				<altitude>1865.432478925753</altitude>
				<heading>14.54090499987349</heading>
				<tilt>29.99999997093746</tilt>
				<roll>-2.247342324636938</roll>
				<gx:altitudeMode>relativeToSeaFloor</gx:altitudeMode>
			</Camera>
			<styleUrl>#m_ylw-pushpin</styleUrl>
			<Point>
				<gx:drawOrder>1</gx:drawOrder>
				<coordinates>73.88607664005511,18.54388458835766,0</coordinates>
			</Point>
		</Placemark>
		<Placemark>
			<name>L4</name>
			<Camera>
				<longitude>73.87886558114671</longitude>
				<latitude>18.54005407242375</latitude>
				<altitude>379.7440011079787</altitude>
				<heading>14.32777733674867</heading>
				<tilt>27.5055581820834</tilt>
				<roll>-2.431627431665134</roll>
				<gx:altitudeMode>relativeToSeaFloor</gx:altitudeMode>
			</Camera>
			<styleUrl>#m_ylw-pushpin</styleUrl>
			<Point>
				<gx:drawOrder>1</gx:drawOrder>
				<coordinates>73.87999637038325,18.54209549967499,0</coordinates>
			</Point>
		</Placemark>
		<Placemark>
			<name>L5</name>
			<Camera>
				<longitude>73.93341155355877</longitude>
				<latitude>18.53329570290975</latitude>
				<altitude>583.3990552193314</altitude>
				<heading>14.55676418594602</heading>
				<tilt>30.00000001290742</tilt>
				<roll>-2.237284026827914</roll>
				<gx:altitudeMode>relativeToSeaFloor</gx:altitudeMode>
			</Camera>
			<styleUrl>#m_ylw-pushpin</styleUrl>
			<Point>
				<gx:drawOrder>1</gx:drawOrder>
				<coordinates>73.93448654097278,18.53532585564871,0</coordinates>
			</Point>
		</Placemark>
		<Placemark>
			<name>L7</name>
			<Camera>
				<longitude>73.97865331648029</longitude>
				<latitude>18.52778599399146</latitude>
				<altitude>696.7276758164689</altitude>
				<heading>12.16187388401018</heading>
				<tilt>31.13495720065474</tilt>
				<roll>-2.365700018863153</roll>
				<gx:altitudeMode>relativeToSeaFloor</gx:altitudeMode>
			</Camera>
			<styleUrl>#m_ylw-pushpin</styleUrl>
			<Point>
				<gx:drawOrder>1</gx:drawOrder>
				<coordinates>73.97943680230104,18.53114589050743,0</coordinates>
			</Point>
		</Placemark>
		<Placemark>
			<name>L9</name>
			<Camera>
				<longitude>73.9918908992164</longitude>
				<latitude>18.51853700617247</latitude>
				<altitude>773.7082861445052</altitude>
				<heading>12.16608023270135</heading>
				<tilt>31.13495718097581</tilt>
				<roll>-2.365985081777752</roll>
				<gx:altitudeMode>relativeToSeaFloor</gx:altitudeMode>
			</Camera>
			<styleUrl>#m_ylw-pushpin</styleUrl>
			<Point>
				<gx:drawOrder>1</gx:drawOrder>
				<coordinates>73.99238501248777,18.52186205997822,0</coordinates>
			</Point>
		</Placemark>
		<Placemark>
			<name>L6</name>
			<Camera>
				<longitude>73.95107630578201</longitude>
				<latitude>18.53552278246071</latitude>
				<altitude>1834.573321603445</altitude>
				<heading>11.98188683655304</heading>
				<tilt>29.04511939715324</tilt>
				<roll>-2.424587289184624</roll>
				<gx:altitudeMode>relativeToSeaFloor</gx:altitudeMode>
			</Camera>
			<styleUrl>#m_ylw-pushpin</styleUrl>
			<Point>
				<gx:drawOrder>1</gx:drawOrder>
				<coordinates>73.95042122226697,18.54470499554284,0</coordinates>
			</Point>
		</Placemark>
		<Placemark>
			<name>L8</name>
			<Camera>
				<longitude>73.98836455602901</longitude>
				<latitude>18.52248262015208</latitude>
				<altitude>535.6142967755518</altitude>
				<heading>11.94459331165926</heading>
				<tilt>28.49118071070283</tilt>
				<roll>-2.466710382550951</roll>
				<gx:altitudeMode>relativeToSeaFloor</gx:altitudeMode>
			</Camera>
			<styleUrl>#m_ylw-pushpin</styleUrl>
			<Point>
				<gx:drawOrder>1</gx:drawOrder>
				<coordinates>73.98855135335891,18.52457076673773,0</coordinates>
			</Point>
		</Placemark>
		<atom:link rel="app" href="https://www.google.com/earth/about/versions/#earth-pro" title="Google Earth Pro 7.3.7.1155"></atom:link>
	</Folder>
</Document>
</kml>
