{"type":"FeatureCollection","features":[{"type":"Feature","properties":{"osmId":121898484,"id":"w121898484","kind":"water","name":null,"source":"OPENSTREETMAP"},"geometry":{"type":"Polygon","coordinates":[[[73.8683152,18.5469735],[73.868165,18.5470854],[73.8681167,18.5472126],[73.8680368,18.5473873],[73.8680685,18.5475686],[73.8682026,18.5476601],[73.8683158,18.5475348],[73.8684547,18.5475177],[73.8685995,18.547533],[73.86868,18.5474669],[73.8687175,18.5473346],[73.8686264,18.5470447],[73.8684332,18.5470142],[73.8683152,18.5469735]]]}},{"type":"Feature","properties":{"osmId":206254992,"id":"w206254992","kind":"water","name":null,"source":"OPENSTREETMAP"},"geometry":{"type":"Polygon","coordinates":[[[73.8618164,18.5542419],[73.8623789,18.5534937],[73.8630402,18.5537661],[73.863579,18.5541188],[73.8640601,18.5543681],[73.8642974,18.554514],[73.8644963,18.5544715],[73.8649196,18.5544532],[73.8659973,18.5547938],[73.8668504,18.5549336],[73.8686401,18.5551586],[73.8697369,18.5552803],[73.8702437,18.5552924],[73.8706093,18.5552195],[73.8711995,18.5550249],[73.8715843,18.5549215],[73.8722258,18.5552681],[73.8730084,18.5558397],[73.8734445,18.556612],[73.8736883,18.5572627],[73.8737524,18.5577674],[73.8737845,18.5582417],[73.8736755,18.5584667],[73.873637,18.5589897],[73.8735857,18.559689],[73.8734189,18.5603336],[73.8733034,18.5609782],[73.8733355,18.5616166],[73.8732072,18.562322],[73.8729827,18.5632098],[73.8730276,18.5634713],[73.8729827,18.5637024],[73.872957,18.5644868],[73.8729635,18.5650462],[73.873034,18.5659523],[73.8733013,18.5674976],[73.8735916,18.5680566],[73.8729747,18.5681512],[73.8727661,18.5676782],[73.8726935,18.5672611],[73.8726073,18.5668269],[73.8725574,18.566427],[73.8724576,18.5661518],[73.8723896,18.565623],[73.8723851,18.5653693],[73.8724622,18.5652188],[73.8722853,18.5652317],[73.8722717,18.5650984],[73.8722671,18.5648705],[73.8722218,18.5646856],[73.8719633,18.5648791],[73.8716503,18.5652747],[73.8715324,18.5656144],[73.8715596,18.5663883],[73.8716866,18.5667151],[73.8717909,18.567274],[73.8720041,18.5677728],[73.8722717,18.5683017],[73.8724259,18.5685768],[73.8724849,18.5687101],[73.8724588,18.5687741],[73.8724156,18.5688532],[73.8723022,18.5688898],[73.8721185,18.5688747],[73.8720618,18.5687436],[73.872089,18.5685609],[73.8721299,18.5685093],[73.8721616,18.5684383],[73.872148,18.5683631],[73.8721027,18.5682814],[73.8719825,18.5682276],[73.8718963,18.5682534],[73.8718373,18.5681008],[73.8717443,18.5678557],[73.8716332,18.5675526],[73.8714858,18.5669248],[73.8714064,18.566482],[73.8713701,18.5661272],[73.8713293,18.5657338],[73.8715584,18.5651254],[73.8719394,18.5647492],[73.8720686,18.564517],[73.87208,18.5641128],[73.8721253,18.5639924],[73.8722228,18.5639967],[73.8723362,18.5638462],[73.8723362,18.5633905],[73.8723839,18.5630207],[73.8723771,18.5628358],[73.8724065,18.5625842],[73.8724814,18.5624703],[73.8724428,18.5623607],[73.8724315,18.5622188],[73.8725245,18.5620403],[73.8725267,18.5618812],[73.8725358,18.5616834],[73.8725857,18.561419],[73.87254,18.5608708],[73.8727215,18.5605096],[73.8725763,18.5602774],[73.8726307,18.5596066],[73.872785,18.5589874],[73.8729845,18.558523],[73.8730843,18.5582306],[73.8730117,18.5578953],[73.8728485,18.5578781],[73.872658,18.5573965],[73.8725037,18.5568805],[73.8723132,18.5563817],[73.8720592,18.5564591],[73.871896,18.5561323],[73.8712247,18.5559345],[73.8702721,18.5559775],[73.8695827,18.5560893],[73.8688842,18.5561237],[73.8680496,18.5560463],[73.8667433,18.5558141],[73.8656819,18.5555217],[73.8643484,18.5551433],[73.8636136,18.5550401],[73.863351,18.5548683],[73.8631055,18.5548132],[73.8629116,18.5546859],[73.8623599,18.5544062],[73.8621643,18.5543697],[73.8618164,18.5542419]]]}},{"type":"Feature","properties":{"osmId":206255001,"id":"w206255001","kind":"water","name":null,"source":"OPENSTREETMAP"},"geometry":{"type":"Polygon","coordinates":[[[73.8597819,18.5309284],[73.8597389,18.5318971],[73.8590171,18.5317412],[73.8577792,18.5319042],[73.8570902,18.5321054],[73.8567092,18.5323448],[73.8561014,18.5330157],[73.8554029,18.5341511],[73.855167,18.5349682],[73.8549674,18.5363615],[73.8547407,18.53969],[73.8547225,18.5410575],[73.8547134,18.542339],[73.8551579,18.5442914],[73.8555934,18.5456589],[73.8561467,18.5474993],[73.856809,18.5490646],[73.8576617,18.550518],[73.8584963,18.5513351],[73.8597663,18.5521091],[73.8615352,18.5529691],[73.8623789,18.5534937],[73.8618164,18.5542419],[73.8609274,18.5537689],[73.8597028,18.5531755],[73.8585598,18.5524875],[73.857825,18.5519801],[73.856936,18.5511889],[73.8565187,18.5506642],[73.8560923,18.5497268],[73.8556841,18.5487464],[73.8552849,18.5476799],[73.8548858,18.5467253],[73.8545048,18.5454954],[73.8540421,18.5443172],[73.8537428,18.5431217],[73.853516,18.5420466],[73.8535432,18.5409285],[73.853643,18.5393718],[73.8536793,18.5369034],[73.8538335,18.5354842],[73.8541419,18.5343575],[73.8545728,18.533377],[73.8553666,18.53219],[73.8558882,18.5317686],[73.8566003,18.5312697],[73.857834,18.5308095],[73.8587367,18.5307235],[73.8590807,18.5308599],[73.8592708,18.5308585],[73.8594398,18.5309221],[73.8596249,18.5309501],[73.8597819,18.5309284]]]}},{"type":"Feature","properties":{"osmId":206255002,"id":"w206255002","kind":"water","name":"Mula-Mutha River","source":"OPENSTREETMAP"},"geometry":{"type":"Polygon","coordinates":[[[73.8746464,18.5401072],[73.874305,18.5418763],[73.8748382,18.5420732],[73.8760208,18.54251],[73.8765549,18.5427073],[73.8777737,18.5430783],[73.8797686,18.5435709],[73.8824178,18.5440756],[73.8836376,18.5439538],[73.883759,18.5439705],[73.883872,18.5439866],[73.8840721,18.5439997],[73.884223,18.5439023],[73.8842997,18.5438983],[73.884396,18.5439286],[73.8845427,18.5440168],[73.8847614,18.5440416],[73.8850212,18.5440312],[73.8851654,18.5440203],[73.8854383,18.5441242],[73.8857108,18.5442914],[73.8862168,18.5443246],[73.8872276,18.5443949],[73.8883736,18.5444157],[73.8894831,18.5443924],[73.8903671,18.5444336],[73.8909111,18.5444212],[73.8913144,18.5443769],[73.8918883,18.5442696],[73.8925391,18.5440608],[73.8930705,18.5438783],[73.8944385,18.5435287],[73.8954059,18.5432847],[73.8963946,18.5430401],[73.8974513,18.54285],[73.8985125,18.5426241],[73.8997944,18.5424042],[73.9007405,18.5422699],[73.9019248,18.5421248],[73.9030273,18.5420407],[73.9031053,18.5419855],[73.9033501,18.5419408],[73.9037234,18.5419252],[73.9038591,18.5419163],[73.9039629,18.5419432],[73.9040481,18.5419648],[73.9041227,18.5419401],[73.9041793,18.5418685],[73.9056983,18.5422494],[73.9058886,18.5422512],[73.9081914,18.5416978],[73.9103531,18.5414971],[73.9113987,18.5413207],[73.9129703,18.5407977],[73.9138811,18.540597],[73.9145418,18.540676],[73.9150678,18.5407977],[73.9158055,18.5406456],[73.9153565,18.5387299],[73.9145611,18.5389793],[73.9139389,18.5391313],[73.9131499,18.5392894],[73.9121877,18.5393989],[73.909949,18.5397577],[73.9087687,18.5400496],[73.9083005,18.5401348],[73.9054717,18.5405058],[73.9043812,18.540676],[73.9035152,18.5406152],[73.9017122,18.5406564],[73.9003448,18.5409131],[73.8990813,18.5408968],[73.8982952,18.5409108],[73.8977029,18.5410108],[73.8979162,18.5412618],[73.8977719,18.5413238],[73.8975273,18.5414091],[73.897299,18.5415033],[73.8972243,18.5414118],[73.8970729,18.5415573],[73.8970475,18.541641],[73.8970781,18.541725],[73.8969478,18.5418675],[73.8967552,18.5419179],[73.8965741,18.5419512],[73.8963392,18.5419541],[73.8961274,18.5418975],[73.8958616,18.5418592],[73.8954742,18.5419184],[73.8952094,18.5417705],[73.8949703,18.5417756],[73.8949217,18.5418624],[73.8944677,18.542045],[73.8943196,18.5422951],[73.894058,18.5423555],[73.8938642,18.5423634],[73.8936419,18.542488],[73.8933572,18.5424034],[73.8932301,18.5423016],[73.8929469,18.5423729],[73.8930755,18.5426909],[73.8929289,18.5427195],[73.8928492,18.5426589],[73.8927085,18.5425355],[73.8924909,18.5426192],[73.8922674,18.5427049],[73.8922213,18.5428488],[73.8922413,18.5429368],[73.8920793,18.543001],[73.891837,18.5430037],[73.8915958,18.5430396],[73.8912745,18.5431319],[73.8909887,18.5430258],[73.8904233,18.5430473],[73.8894397,18.5432113],[73.8889935,18.5431663],[73.8886674,18.5430788],[73.88845,18.5429934],[73.8883962,18.5430544],[73.8884804,18.5431181],[73.8884128,18.54316],[73.8883486,18.5431268],[73.8882542,18.5429911],[73.888163,18.5429494],[73.8881462,18.5430365],[73.8882094,18.5432246],[73.8881477,18.5432335],[73.8879612,18.5430706],[73.8878379,18.5428996],[73.8876286,18.5428469],[73.8872211,18.5429296],[73.8870801,18.5428235],[73.8865859,18.5429542],[73.886413,18.5430045],[73.8862435,18.542931],[73.885975,18.5428318],[73.8849021,18.542765],[73.8846958,18.5427603],[73.8843866,18.5429773],[73.8843757,18.5428074],[73.8842002,18.5426453],[73.8840249,18.5426614],[73.8835173,18.5428061],[73.8833775,18.5427615],[73.8830487,18.5424058],[73.882899,18.5424014],[73.8828015,18.5423247],[73.8822973,18.5427486],[73.882231,18.5426615],[73.8827248,18.5422178],[73.8820415,18.5421424],[73.8810623,18.5420428],[73.8803812,18.5417744],[73.8799121,18.5417328],[73.8789668,18.5415579],[73.8774465,18.5411322],[73.8754195,18.540451],[73.8746464,18.5401072]]]}},{"type":"Feature","properties":{"osmId":206255009,"id":"w206255009","kind":"water","name":null,"source":"OPENSTREETMAP"},"geometry":{"type":"Polygon","coordinates":[[[73.9519496,18.5462356],[73.9535296,18.546306],[73.9565889,18.547099],[73.958389,18.5473645],[73.9607065,18.5467803],[73.9636016,18.5450199],[73.9675466,18.54371],[73.9697322,18.5434628],[73.9724482,18.5422809],[73.9736495,18.541094],[73.9751125,18.538966],[73.9759834,18.5358181],[73.9769641,18.5341649],[73.97842,18.5326459],[73.9804342,18.5312105],[73.9836158,18.5286196],[73.9872849,18.5268801],[73.9909708,18.5242405],[73.9919505,18.5230019],[73.9906939,18.5221178],[73.9897977,18.5230774],[73.9889722,18.5238601],[73.9879381,18.5246945],[73.9865229,18.5255202],[73.9847358,18.5265696],[73.9818964,18.5281781],[73.9796285,18.5297693],[73.9783495,18.5308358],[73.9769252,18.5322292],[73.9761814,18.5332356],[73.9752833,18.5348784],[73.9745031,18.5367534],[73.9742582,18.5378973],[73.9735804,18.5393833],[73.9735337,18.5394857],[73.9727639,18.540921],[73.971635,18.5414805],[73.9702346,18.5420188],[73.9697362,18.5422103],[73.9674783,18.5427455],[73.9646559,18.5432077],[73.9628085,18.5441321],[73.9612434,18.5452024],[73.9587289,18.5461754],[73.9576859,18.5462322],[73.9566788,18.5461228],[73.9556268,18.5458673],[73.9547288,18.545466],[73.95351,18.545168],[73.9526056,18.5451862],[73.9523163,18.5452006],[73.952368,18.5450427],[73.9521289,18.5449721],[73.951927,18.54504],[73.9517753,18.5449206],[73.9517452,18.544474],[73.9516693,18.5444659],[73.9515483,18.5460946],[73.9516693,18.5461014],[73.9516435,18.5463648],[73.9517924,18.5463593],[73.9519496,18.5462356]]]}},{"type":"Feature","properties":{"osmId":216506296,"id":"w216506296","kind":"water","name":"Macchi Garden Talav","source":"OPENSTREETMAP"},"geometry":{"type":"Polygon","coordinates":[[[73.8737121,18.5210749],[73.8743002,18.5208399],[73.8743125,18.5208924],[73.8744404,18.5209255],[73.8745524,18.5213114],[73.8746199,18.5213672],[73.8746678,18.521459],[73.8746602,18.5215942],[73.8745709,18.5216953],[73.8744382,18.5218078],[73.8742064,18.5219171],[73.8740519,18.5219305],[73.8739191,18.5218728],[73.8738788,18.5218098],[73.8738886,18.5217376],[73.8739844,18.5216767],[73.8740007,18.5216107],[73.873918,18.521556],[73.8738919,18.521558],[73.8738386,18.5214972],[73.8738255,18.5214126],[73.8737896,18.5213187],[73.8737121,18.5210749]]]}},{"type":"Feature","properties":{"osmId":224727405,"id":"w224727405","kind":"water","name":null,"source":"OPENSTREETMAP"},"geometry":{"type":"Polygon","coordinates":[[[73.9350096,18.5186834],[73.9351195,18.5186942],[73.9351479,18.5184336],[73.935038,18.5184228],[73.9350096,18.5186834]]]}},{"type":"Feature","properties":{"osmId":282054961,"id":"w282054961","kind":"water","name":null,"source":"OPENSTREETMAP"},"geometry":{"type":"Polygon","coordinates":[[[73.8547661,18.5250756],[73.8547701,18.5250807],[73.8547723,18.5250866],[73.8547728,18.525093],[73.8547713,18.5250992],[73.854768,18.5251047],[73.8547632,18.5251091],[73.8547573,18.5251121],[73.8547508,18.5251134],[73.8547441,18.5251129],[73.8547379,18.5251107],[73.8547326,18.5251068],[73.8547286,18.5251017],[73.8547263,18.5250957],[73.8547259,18.5250894],[73.8547274,18.5250832],[73.8547306,18.5250777],[73.8547354,18.5250732],[73.8547413,18.5250702],[73.8547479,18.525069],[73.8547545,18.5250695],[73.8547608,18.5250717],[73.8547661,18.5250756]]]}},{"type":"Feature","properties":{"osmId":282102112,"id":"w282102112","kind":"water","name":null,"source":"OPENSTREETMAP"},"geometry":{"type":"Polygon","coordinates":[[[73.8682567,18.5195619],[73.8682612,18.5195725],[73.8682677,18.5195819],[73.8682762,18.5195899],[73.8682862,18.5195963],[73.8682973,18.5196006],[73.8683091,18.5196029],[73.868321,18.519603],[73.8683328,18.5196008],[73.8683439,18.5195964],[73.8683539,18.5195901],[73.8683624,18.5195822],[73.8683691,18.5195727],[73.8683738,18.5195622],[73.8683761,18.5195511],[73.8683762,18.5195397],[73.8683739,18.5195286],[73.8683693,18.519518],[73.8683626,18.5195086],[73.8683541,18.5195004],[73.8683443,18.5194941],[73.8683332,18.5194898],[73.8683214,18.5194875],[73.8683095,18.5194874],[73.8682977,18.5194896],[73.8682866,18.519494],[73.8682766,18.5195002],[73.8682681,18.5195083],[73.8682614,18.5195178],[73.8682567,18.5195282],[73.8682544,18.5195393],[73.8682543,18.5195507],[73.8682567,18.5195619]]]}},{"type":"Feature","properties":{"osmId":359927980,"id":"w359927980","kind":"water","name":null,"source":"OPENSTREETMAP"},"geometry":{"type":"Polygon","coordinates":[[[73.8536012,18.53855],[73.8535972,18.5385352],[73.8535876,18.538523],[73.8535738,18.5385152],[73.8535578,18.538513],[73.8535422,18.5385167],[73.8535293,18.5385259],[73.8535211,18.538539],[73.8535188,18.5385541],[73.8535227,18.5385689],[73.8535324,18.5385811],[73.8535462,18.5385889],[73.8535621,18.5385911],[73.8535777,18.5385874],[73.8535906,18.5385782],[73.8535989,18.5385651],[73.8536012,18.53855]]]}},{"type":"Feature","properties":{"osmId":361306710,"id":"w361306710","kind":"water","name":null,"source":"OPENSTREETMAP"},"geometry":{"type":"Polygon","coordinates":[[[73.9015314,18.5530647],[73.901522,18.5530471],[73.9015232,18.5530274],[73.9015345,18.5530108],[73.9015531,18.5530019],[73.9015739,18.553003],[73.9015913,18.5530138],[73.9016007,18.5530314],[73.9015996,18.5530511],[73.9015882,18.5530676],[73.9015696,18.5530765],[73.9015488,18.5530755],[73.9015314,18.5530647]]]}},{"type":"Feature","properties":{"osmId":462489198,"id":"w462489198","kind":"water","name":null,"source":"OPENSTREETMAP"},"geometry":{"type":"Polygon","coordinates":[[[73.8989578,18.5580223],[73.8989819,18.557735],[73.8988129,18.5577299],[73.8987942,18.5581368],[73.898829,18.5581368],[73.8988359,18.5580147],[73.8988923,18.5580182],[73.8989578,18.5580223]]]}},{"type":"Feature","properties":{"osmId":465517855,"id":"w465517855","kind":"water","name":null,"source":"OPENSTREETMAP"},"geometry":{"type":"Polygon","coordinates":[[[73.9167478,18.5473267],[73.9160827,18.547342],[73.9159941,18.5474462],[73.9161283,18.5474488],[73.9162919,18.5475378],[73.916662,18.5475022],[73.9167478,18.5473267]]]}},{"type":"Feature","properties":{"osmId":469647651,"id":"w469647651","kind":"water","name":null,"source":"OPENSTREETMAP"},"geometry":{"type":"Polygon","coordinates":[[[73.9268698,18.5162684],[73.9268974,18.5162312],[73.9268914,18.5161815],[73.9268752,18.5161528],[73.9268289,18.5161413],[73.9267946,18.5161088],[73.9267644,18.5160725],[73.9267624,18.5160324],[73.9267382,18.5160209],[73.926708,18.5160209],[73.9266886,18.5160148],[73.9266817,18.515998],[73.9267532,18.5159409],[73.9267595,18.5158998],[73.92672,18.5158604],[73.9266938,18.515803],[73.9266737,18.5157457],[73.9266737,18.5157228],[73.9266555,18.5156998],[73.9266253,18.5156865],[73.9265911,18.5156712],[73.9265487,18.5156731],[73.9265084,18.5156846],[73.9264842,18.5156979],[73.9264399,18.5157113],[73.9264137,18.5157113],[73.9263734,18.5156731],[73.9263693,18.5156903],[73.9263552,18.5156998],[73.926327,18.515696],[73.9263008,18.5156922],[73.9262786,18.5156712],[73.9262545,18.5156654],[73.9262303,18.5156616],[73.9262222,18.5156941],[73.9262222,18.5157113],[73.9262262,18.5157381],[73.9262323,18.5157801],[73.9262262,18.5158183],[73.9262262,18.5158374],[73.9262383,18.5158527],[73.9262864,18.5158427],[73.9263568,18.5158147],[73.9264263,18.5157863],[73.9264557,18.5157954],[73.9264493,18.5158546],[73.9264404,18.5159176],[73.9264601,18.5159558],[73.9263869,18.5160139],[73.9263633,18.5160544],[73.9263665,18.5160913],[73.9264444,18.5161049],[73.9265755,18.5161191],[73.9266451,18.5161411],[73.9266995,18.5161583],[73.9267908,18.5162513],[73.9268698,18.5162684]]]}},{"type":"Feature","properties":{"osmId":469810015,"id":"w469810015","kind":"water","name":"amanora lake","source":"OPENSTREETMAP"},"geometry":{"type":"Polygon","coordinates":[[[73.942142,18.5188557],[73.9421017,18.5188303],[73.9421205,18.518754],[73.9420749,18.5187057],[73.9420964,18.5186497],[73.9421178,18.5185887],[73.942142,18.5185073],[73.9421822,18.518487],[73.9422385,18.5184768],[73.9423163,18.5184412],[73.9423244,18.51837],[73.94237,18.5183242],[73.9424021,18.5183013],[73.9424158,18.5182275],[73.9424156,18.5181843],[73.9424182,18.5180927],[73.9423834,18.5180114],[73.9423505,18.517946],[73.9423378,18.5179274],[73.9422868,18.5178867],[73.9422278,18.5178562],[73.9421795,18.5178384],[73.9421232,18.517785],[73.9421232,18.5177087],[73.9421232,18.5176553],[73.9421071,18.5175358],[73.9420937,18.5175052],[73.9420615,18.5175027],[73.942024,18.5175078],[73.9420186,18.5174595],[73.9420535,18.5173984],[73.942083,18.5173781],[73.9420856,18.5173069],[73.9420856,18.5172229],[73.9420561,18.5171593],[73.9420266,18.5170881],[73.9420374,18.5170373],[73.9421822,18.5170373],[73.9422117,18.517083],[73.942209,18.5171492],[73.9422305,18.5172026],[73.9422734,18.5172153],[73.9423351,18.5172433],[73.9423861,18.5172687],[73.9424424,18.5173272],[73.9424826,18.5173628],[73.9425041,18.5174188],[73.9425175,18.5174722],[73.9425068,18.5175943],[73.9425175,18.5176528],[73.9425443,18.5176934],[73.9425845,18.517724],[73.9426301,18.5177367],[73.9426797,18.5177268],[73.9427321,18.5177163],[73.9427857,18.5177316],[73.9428179,18.5177672],[73.9428474,18.5177952],[73.9428769,18.5178104],[73.9429547,18.5177825],[73.9430351,18.5177647],[73.9430888,18.5177799],[73.9431263,18.5178054],[73.9431746,18.5178359],[73.9432149,18.5178867],[73.9432497,18.5179452],[73.9432739,18.5179859],[73.9432926,18.5180419],[73.943239,18.5180648],[73.9431666,18.5180877],[73.9431076,18.5181055],[73.9430512,18.5181512],[73.9430351,18.5181767],[73.9430056,18.5181996],[73.9429359,18.5181767],[73.942893,18.5181767],[73.9428581,18.5181919],[73.9428474,18.5182275],[73.9428393,18.5182733],[73.9428233,18.5183013],[73.9428152,18.5183318],[73.9428501,18.5183522],[73.9428876,18.5183649],[73.9429037,18.5183954],[73.9429091,18.5184183],[73.9428984,18.5184514],[73.9428823,18.5184819],[73.9428474,18.5184997],[73.9427884,18.5184971],[73.9427481,18.5185149],[73.9427106,18.518548],[73.942665,18.5185709],[73.9422922,18.5186904],[73.9423136,18.518726],[73.9423378,18.5187286],[73.9423405,18.5187693],[73.9422841,18.5188227],[73.9422063,18.5188303],[73.942142,18.5188557]]]}},{"type":"Feature","properties":{"osmId":470714581,"id":"w470714581","kind":"water","name":"O2 zone","source":"OPENSTREETMAP"},"geometry":{"type":"Polygon","coordinates":[[[73.9307532,18.5147815],[73.9307351,18.5147624],[73.9307217,18.5147268],[73.9307217,18.5146867],[73.9307378,18.5146518],[73.930764,18.5146308],[73.9307941,18.5146142],[73.9308317,18.5146079],[73.9308746,18.5146174],[73.9309055,18.514634],[73.9309249,18.51466],[73.9309343,18.5146931],[73.9309336,18.5147236],[73.9309269,18.5147541],[73.9309014,18.5147834],[73.9308719,18.5148018],[73.930829,18.5148088],[73.9307841,18.5147999],[73.9307532,18.5147815]]]}},{"type":"Feature","properties":{"osmId":470716723,"id":"w470716723","kind":"water","name":null,"source":"OPENSTREETMAP"},"geometry":{"type":"Polygon","coordinates":[[[73.9306082,18.5131838],[73.930632,18.5131895],[73.9306655,18.5131771],[73.930683,18.5131558],[73.9306819,18.513131],[73.9306682,18.513111],[73.9306461,18.5130977],[73.9306112,18.5130983],[73.9305874,18.5131228],[73.930583,18.5131454],[73.9305914,18.5131708],[73.9306082,18.5131838]]]}},{"type":"Feature","properties":{"osmId":483307725,"id":"w483307725","kind":"water","name":"Poona Golf club Lake","source":"OPENSTREETMAP"},"geometry":{"type":"Polygon","coordinates":[[[73.8814203,18.5543692],[73.8814131,18.554352],[73.8813704,18.5543189],[73.8813172,18.5542501],[73.8812662,18.5541814],[73.8812722,18.5541308],[73.8812864,18.554088],[73.8813272,18.5540207],[73.8814517,18.5539827],[73.8815222,18.5538685],[73.8816155,18.5537778],[73.8816755,18.5537983],[73.8817603,18.5538719],[73.8818886,18.5540012],[73.8819231,18.5539845],[73.8819659,18.5539854],[73.8820297,18.5539794],[73.8820857,18.554098],[73.8821434,18.5540948],[73.8821521,18.5540461],[73.882198,18.5539993],[73.8822281,18.5539682],[73.882251,18.553935],[73.882307,18.5539315],[73.8822675,18.5538766],[73.8821608,18.5538633],[73.8820697,18.5538265],[73.8819828,18.5537606],[73.8818896,18.5537291],[73.8818414,18.5536637],[73.8816738,18.5535712],[73.8816085,18.5535718],[73.8815081,18.5536095],[73.8815354,18.5536917],[73.8815655,18.5537648],[73.8815018,18.5538312],[73.8814602,18.5538744],[73.8814152,18.5539142],[73.8813608,18.5539517],[73.8812873,18.5539767],[73.8812119,18.5540812],[73.8812156,18.5541529],[73.8811252,18.5541822],[73.8810677,18.5542348],[73.8810385,18.5542623],[73.8809725,18.5542929],[73.8809435,18.5543468],[73.8809775,18.5544172],[73.8810282,18.554464],[73.8811343,18.5544195],[73.881177,18.5544152],[73.8812398,18.5544405],[73.8813429,18.5544471],[73.881377,18.5544195],[73.8814203,18.5543692]]]}},{"type":"Feature","properties":{"osmId":556021036,"id":"w556021036","kind":"water","name":null,"source":"OPENSTREETMAP"},"geometry":{"type":"Polygon","coordinates":[[[73.9123123,18.5472699],[73.9112474,18.5465731],[73.9113091,18.5463265],[73.9114834,18.5461281],[73.9125349,18.5467562],[73.9123874,18.5470372],[73.9124424,18.5471052],[73.9124544,18.5472318],[73.9123123,18.5472699]]]}},{"type":"Feature","properties":{"osmId":765880777,"id":"w765880777","kind":"water","name":null,"source":"OPENSTREETMAP"},"geometry":{"type":"Polygon","coordinates":[[[73.9258169,18.5205005],[73.9258752,18.5205088],[73.9259335,18.5205392],[73.9259743,18.5204591],[73.9258723,18.5204397],[73.925881,18.5203431],[73.925983,18.5203431],[73.9259772,18.5202768],[73.9259597,18.5202326],[73.9259306,18.5201884],[73.9259043,18.5201663],[73.9258403,18.5202188],[73.9258169,18.5205005]]]}},{"type":"Feature","properties":{"osmId":765880778,"id":"w765880778","kind":"water","name":null,"source":"OPENSTREETMAP"},"geometry":{"type":"Polygon","coordinates":[[[73.924809,18.520274],[73.9248381,18.5202906],[73.9248818,18.5203044],[73.9249313,18.5203044],[73.9249692,18.5202961],[73.92501,18.5202823],[73.9250362,18.5202491],[73.9250508,18.5202049],[73.9250508,18.520169],[73.9250478,18.5201304],[73.9250245,18.5200917],[73.9249925,18.5200668],[73.9249459,18.5200502],[73.9248905,18.5200447],[73.9248527,18.5200558],[73.9248119,18.5200779],[73.9247798,18.5201],[73.9247653,18.5201414],[73.9247653,18.5201828],[73.9247769,18.5202326],[73.924809,18.520274]]]}},{"type":"Feature","properties":{"osmId":892480367,"id":"w892480367","kind":"water","name":null,"source":"OPENSTREETMAP"},"geometry":{"type":"Polygon","coordinates":[[[73.8890358,18.5541733],[73.8890666,18.5541841],[73.889096,18.5541916],[73.8891283,18.5541842],[73.8891709,18.5541703],[73.8892252,18.5541675],[73.8892839,18.5541925],[73.8893279,18.5542301],[73.8893544,18.5542524],[73.8893793,18.5542802],[73.8894211,18.5542916],[73.8894645,18.5543067],[73.8894997,18.5543094],[73.8895188,18.554283],[73.8895188,18.554244],[73.8895129,18.5542023],[73.8894924,18.5541494],[73.8894704,18.5541048],[73.889441,18.5540436],[73.889419,18.5539935],[73.8893749,18.5539517],[73.8893426,18.5539225],[73.8893103,18.5538975],[73.889281,18.5538752],[73.8892457,18.5538627],[73.8891885,18.5538362],[73.8891224,18.5538139],[73.8890945,18.5538265],[73.889096,18.5538557],[73.8890966,18.5538766],[73.8891056,18.5539005],[73.8891097,18.5539378],[73.8890888,18.5539741],[73.889055,18.5539936],[73.8890356,18.5540197],[73.8890335,18.5540687],[73.8890284,18.5540881],[73.8890284,18.5541188],[73.889028,18.5541508],[73.8890358,18.5541733]]]}},{"type":"Feature","properties":{"osmId":892813013,"id":"w892813013","kind":"water","name":null,"source":"OPENSTREETMAP"},"geometry":{"type":"Polygon","coordinates":[[[73.8858564,18.5563711],[73.8858522,18.556347],[73.8858596,18.5563239],[73.8858607,18.5562998],[73.8858639,18.5562758],[73.8858882,18.5562697],[73.8859295,18.5562517],[73.8859739,18.5562336],[73.8859993,18.5562276],[73.8860374,18.5562266],[73.8860808,18.5562226],[73.8861253,18.5562236],[73.8861613,18.5562266],[73.8861856,18.5562366],[73.8861952,18.5562446],[73.8862195,18.5562366],[73.8862587,18.5562155],[73.8863095,18.5562065],[73.8863709,18.5562025],[73.8864217,18.5562045],[73.8864492,18.5562236],[73.8864778,18.5562477],[73.8865,18.5562808],[73.8865159,18.556345],[73.8865243,18.5563871],[73.8865201,18.5564313],[73.8865106,18.5564524],[73.8864873,18.5564604],[73.8864471,18.5564594],[73.8864206,18.5564534],[73.8863836,18.5564504],[73.8863635,18.5564463],[73.8863582,18.5564353],[73.8863508,18.5564223],[73.8863476,18.5564052],[73.8863476,18.5563942],[73.8863423,18.5563851],[73.8863222,18.5563841],[73.8862894,18.5563841],[73.8862491,18.5563801],[73.8862142,18.5563801],[73.8861952,18.5563831],[73.8861856,18.5563922],[73.8861877,18.5564182],[73.8861856,18.5564343],[73.8861814,18.5564514],[73.8861687,18.5564514],[73.8861528,18.5564463],[73.8861338,18.5564353],[73.8861105,18.5564463],[73.8860819,18.5564463],[73.8860618,18.5564584],[73.8860332,18.5564483],[73.886012,18.5564363],[73.8859909,18.5564283],[73.8859665,18.5564182],[73.885939,18.5564062],[73.885921,18.5564042],[73.8859041,18.5564072],[73.885884,18.5564022],[73.8858617,18.5563912],[73.8858564,18.5563711]]]}},{"type":"Feature","properties":{"osmId":892813014,"id":"w892813014","kind":"water","name":null,"source":"OPENSTREETMAP"},"geometry":{"type":"Polygon","coordinates":[[[73.8860946,18.5565005],[73.8861052,18.5565186],[73.8861348,18.5565367],[73.8861486,18.5565688],[73.8861539,18.5565898],[73.8861549,18.5566159],[73.8861571,18.556642],[73.886156,18.5566671],[73.886156,18.5567012],[73.8861687,18.5567243],[73.8861772,18.5567554],[73.8861941,18.5567735],[73.8862163,18.5567895],[73.8862407,18.5567955],[73.886264,18.5567925],[73.8862862,18.5567925],[73.8863105,18.5567915],[73.8863285,18.5567965],[73.8863529,18.5568126],[73.8863719,18.5568297],[73.8863825,18.5568427],[73.8863878,18.5568788],[73.8863984,18.5569099],[73.8864132,18.556931],[73.8864354,18.5569501],[73.8864587,18.5569701],[73.8864936,18.5569882],[73.8865265,18.5569972],[73.8865487,18.5570012],[73.886572,18.5570103],[73.8866058,18.5570153],[73.8866334,18.5570163],[73.8866577,18.5570163],[73.8866895,18.5569922],[73.8867159,18.5569531],[73.8867106,18.5568949],[73.8866926,18.5568497],[73.8866778,18.5568086],[73.886663,18.5567624],[73.886627,18.5567253],[73.8865963,18.5566972],[73.8865688,18.5566641],[73.8865508,18.556631],[73.8865413,18.5565949],[73.8865529,18.5565487],[73.8865699,18.5565106],[73.8865635,18.5564885],[73.8865455,18.5564774],[73.8865116,18.5564764],[73.8864809,18.5564764],[73.886427,18.5564754],[73.8863857,18.5564754],[73.8863592,18.5564754],[73.886355,18.5564875],[73.8863486,18.5565065],[73.8863285,18.5565106],[73.8862989,18.5565106],[73.8862714,18.5565116],[73.8862491,18.5565126],[73.8862227,18.5565126],[73.8862026,18.5565126],[73.8861877,18.5565116],[73.886174,18.5565055],[73.886156,18.5564915],[73.8861369,18.5564785],[73.8861137,18.5564684],[73.8860999,18.5564734],[73.8860925,18.5564875],[73.8860946,18.5565005]]]}},{"type":"Feature","properties":{"osmId":892827540,"id":"w892827540","kind":"water","name":null,"source":"OPENSTREETMAP"},"geometry":{"type":"Polygon","coordinates":[[[73.8884769,18.5579675],[73.8884793,18.5579484],[73.8884904,18.5579376],[73.8885038,18.5579348],[73.8885195,18.5579419],[73.8885315,18.5579447],[73.8885471,18.5579298],[73.8885449,18.5579114],[73.8885434,18.5578909],[73.8885374,18.5578796],[73.8885337,18.5578697],[73.8885382,18.5578562],[73.8885426,18.5578357],[73.8885486,18.5578173],[73.8885531,18.5577968],[73.8885614,18.557777],[73.8885718,18.5577607],[73.8885822,18.5577473],[73.8885975,18.5577293],[73.8886049,18.5577168],[73.888611,18.5577066],[73.888644,18.5577058],[73.8886623,18.5577109],[73.8886647,18.5577272],[73.8886524,18.5577476],[73.8886588,18.5577657],[73.8886796,18.5577734],[73.8886982,18.5577791],[73.8887175,18.5577813],[73.8887432,18.5577739],[73.8887612,18.55776],[73.8887691,18.5577479],[73.8887774,18.5577438],[73.8887875,18.5577483],[73.888797,18.5577581],[73.8888007,18.5577654],[73.8887991,18.5577746],[73.8887901,18.5577749],[73.8887835,18.5577986],[73.8887829,18.5578228],[73.8887825,18.5578367],[73.8887842,18.5578508],[73.8887848,18.5578629],[73.8887865,18.5578905],[73.8887761,18.557905],[73.8887648,18.5579199],[73.8887529,18.5579306],[73.8887385,18.5579306],[73.888721,18.5579264],[73.8887053,18.5579193],[73.8886859,18.5579163],[73.888674,18.5579163],[73.8886708,18.557933],[73.888679,18.5579484],[73.8886827,18.5579651],[73.8886765,18.5579763],[73.8886476,18.557974],[73.8886357,18.5579657],[73.8886192,18.5579538],[73.8886175,18.5579392],[73.8886081,18.5579299],[73.8885961,18.5579303],[73.8885907,18.557947],[73.8885893,18.5579604],[73.8885853,18.5579704],[73.8885793,18.5579811],[73.8885781,18.5579954],[73.8885806,18.5580019],[73.8885708,18.5580043],[73.8885527,18.5579916],[73.8885326,18.5579913],[73.8885094,18.5579927],[73.8884972,18.5579888],[73.8884841,18.5579787],[73.8884769,18.5579675]]]}},{"type":"Feature","properties":{"osmId":981035036,"id":"w981035036","kind":"water","name":null,"source":"OPENSTREETMAP"},"geometry":{"type":"Polygon","coordinates":[[[73.9456843,18.5443774],[73.9442859,18.5433131],[73.9429607,18.5406099],[73.9420445,18.5387522],[73.9407744,18.5365159],[73.9400124,18.5356902],[73.9385882,18.535071],[73.9373454,18.5348043],[73.9360482,18.5347011],[73.9343881,18.5349248],[73.9325375,18.5352344],[73.9303875,18.5358021],[73.9283827,18.5365589],[73.9269494,18.5370836],[73.9245092,18.5378577],[73.9225134,18.5381501],[73.9204905,18.5382619],[73.9189393,18.5383135],[73.9165262,18.5384511],[73.9153565,18.5387299],[73.9158055,18.5406456],[73.9176968,18.540516],[73.9205962,18.539993],[73.922931,18.5394578],[73.9256636,18.5391172],[73.9293199,18.5381563],[73.9316035,18.5373171],[73.9331687,18.5371954],[73.9347595,18.5371468],[73.9367736,18.5367089],[73.938775,18.5368427],[73.9397243,18.5377793],[73.9404812,18.5391294],[73.9419053,18.5419999],[73.9430727,18.5440433],[73.943927,18.5448959],[73.9445568,18.545344],[73.9451925,18.5455504],[73.9454158,18.5457051],[73.9464889,18.5460129],[73.9486512,18.5459943],[73.9495382,18.5460885],[73.9500993,18.5461841],[73.9515301,18.5460927],[73.9516178,18.544463],[73.9490672,18.5446538],[73.9468105,18.5447298],[73.9459455,18.5446491],[73.9456843,18.5443774]]]}},{"type":"Feature","properties":{"osmId":1066700434,"id":"w1066700434","kind":"water","name":"swimming pool","source":"OPENSTREETMAP"},"geometry":{"type":"Polygon","coordinates":[[[73.9416048,18.5130357],[73.9416303,18.5129861],[73.9416195,18.5129594],[73.9415458,18.5129352],[73.9414774,18.5129098],[73.9414546,18.5129314],[73.9414237,18.5129874],[73.9414814,18.5130065],[73.9416048,18.5130357]]]}},{"type":"Feature","properties":{"osmId":1126616681,"id":"w1126616681","kind":"water","name":null,"source":"OPENSTREETMAP"},"geometry":{"type":"Polygon","coordinates":[[[73.8531084,18.5381489],[73.8531023,18.5382107],[73.8531185,18.5382709],[73.853152,18.5383191],[73.8531997,18.538355],[73.8532569,18.5383748],[73.8533177,18.5383767],[73.8533761,18.5383603],[73.8534262,18.5383274],[73.8534628,18.5382812],[73.8534822,18.5382265],[73.8534826,18.5381688],[73.8534638,18.5381138],[73.8534245,18.5380642],[73.8533699,18.5380301],[73.8533063,18.5380153],[73.8532412,18.5380218],[73.8531822,18.5380486],[73.8531361,18.5380927],[73.8531084,18.5381489]]]}},{"type":"Feature","properties":{"osmId":1126616682,"id":"w1126616682","kind":"water","name":null,"source":"OPENSTREETMAP"},"geometry":{"type":"Polygon","coordinates":[[[73.8535071,18.5379813],[73.8534857,18.5379908],[73.8534687,18.5380063],[73.853458,18.5380263],[73.8534548,18.5380485],[73.8534593,18.5380705],[73.853471,18.5380897],[73.8534886,18.5381042],[73.8535103,18.5381126],[73.8535336,18.538114],[73.8535561,18.5381081],[73.8535755,18.5380957],[73.8535895,18.538078],[73.8535969,18.5380567],[73.8535965,18.5380343],[73.8535884,18.5380132],[73.8535736,18.5379958],[73.8535536,18.537984],[73.8535305,18.5379789],[73.8535071,18.5379813]]]}},{"type":"Feature","properties":{"osmId":1126616683,"id":"w1126616683","kind":"water","name":null,"source":"OPENSTREETMAP"},"geometry":{"type":"Polygon","coordinates":[[[73.8534936,18.5377926],[73.8534753,18.5378077],[73.8534633,18.5378277],[73.8534589,18.5378503],[73.8534625,18.537873],[73.8534737,18.5378934],[73.853491,18.5379089],[73.8535127,18.5379184],[73.8535364,18.5379207],[73.8535597,18.5379156],[73.85358,18.5379037],[73.8535951,18.5378863],[73.8536036,18.5378652],[73.8536044,18.5378426],[73.8535975,18.5378209],[73.8535834,18.5378023],[73.8535635,18.537789],[73.8535402,18.5377827],[73.853516,18.5377839],[73.8534936,18.5377926]]]}},{"type":"Feature","properties":{"osmId":1126616684,"id":"w1126616684","kind":"water","name":null,"source":"OPENSTREETMAP"},"geometry":{"type":"Polygon","coordinates":[[[73.8531267,18.5380054],[73.8534352,18.538018],[73.8534472,18.5377535],[73.8531387,18.5377409],[73.8531267,18.5380054]]]}},{"type":"Feature","properties":{"osmId":1145105975,"id":"w1145105975","kind":"water","name":null,"source":"OPENSTREETMAP"},"geometry":{"type":"Polygon","coordinates":[[[73.8553527,18.5192672],[73.8553541,18.5191866],[73.8554387,18.5191879],[73.8554368,18.5192261],[73.8554373,18.5192686],[73.8553527,18.5192672]]]}},{"type":"Feature","properties":{"osmId":1145105976,"id":"w1145105976","kind":"water","name":null,"source":"OPENSTREETMAP"},"geometry":{"type":"Polygon","coordinates":[[[73.8557645,18.5195939],[73.8557645,18.5195247],[73.8558384,18.5195247],[73.8558384,18.5195939],[73.8557645,18.5195939]]]}},{"type":"Feature","properties":{"osmId":1145105977,"id":"w1145105977","kind":"water","name":null,"source":"OPENSTREETMAP"},"geometry":{"type":"Polygon","coordinates":[[[73.8553104,18.519592],[73.8553108,18.5195487],[73.8553601,18.5195491],[73.8553596,18.5195924],[73.8553104,18.519592]]]}},{"type":"Feature","properties":{"osmId":1145105978,"id":"w1145105978","kind":"water","name":null,"source":"OPENSTREETMAP"},"geometry":{"type":"Polygon","coordinates":[[[73.8555953,18.5190034],[73.8556302,18.5190043],[73.8556312,18.5189695],[73.8555963,18.5189686],[73.8555953,18.5190034]]]}},{"type":"Feature","properties":{"osmId":1288090452,"id":"w1288090452","kind":"water","name":null,"source":"OPENSTREETMAP"},"geometry":{"type":"Polygon","coordinates":[[[73.8986083,18.5537785],[73.8985863,18.5539071],[73.8986024,18.5539239],[73.8986121,18.55393],[73.898626,18.5539275],[73.8986346,18.553928],[73.8986443,18.5539183],[73.8986523,18.5539092],[73.8986593,18.5538893],[73.8986679,18.5537795],[73.8986083,18.5537785]]]}},{"type":"Feature","properties":{"osmId":1291639800,"id":"w1291639800","kind":"water","name":null,"source":"OPENSTREETMAP"},"geometry":{"type":"Polygon","coordinates":[[[73.8750927,18.5550925],[73.8755142,18.5549663],[73.8755834,18.5550623],[73.8762403,18.5548634],[73.8761168,18.5545721],[73.8758761,18.55357],[73.8746711,18.5537442],[73.8749459,18.554663],[73.8750927,18.5550925]]]}},{"type":"Feature","properties":{"osmId":1514375165,"id":"w1514375165","kind":"water","name":null,"source":"OPENSTREETMAP"},"geometry":{"type":"Polygon","coordinates":[[[73.9483457,18.5436798],[73.9483181,18.543691],[73.948297,18.5437033],[73.9482729,18.5437051],[73.9482525,18.5436953],[73.948225,18.5436672],[73.9482218,18.5436432],[73.9482253,18.5436176],[73.9482367,18.5435986],[73.9482603,18.5435906],[73.948285,18.5435855],[73.9483098,18.5435923],[73.9483216,18.543612],[73.9483373,18.5436424],[73.9483515,18.5436497],[73.9483849,18.5436525],[73.9484149,18.543653],[73.9484268,18.5436349],[73.9484325,18.5436138],[73.9484427,18.5436028],[73.948457,18.5436085],[73.9484783,18.5436084],[73.9485022,18.5435961],[73.9485268,18.5435938],[73.9485309,18.5435834],[73.948556,18.5435898],[73.9485714,18.5435883],[73.948604,18.5435814],[73.948621,18.5435899],[73.9486417,18.5435994],[73.9486785,18.543599],[73.9486996,18.5435944],[73.9487165,18.5436005],[73.948741,18.5436187],[73.9487612,18.5436207],[73.9487831,18.543601],[73.9487841,18.5435848],[73.9487896,18.543575],[73.9488099,18.5435883],[73.9488271,18.5436016],[73.9488567,18.5436098],[73.948887,18.5436105],[73.948906,18.5436114],[73.9488963,18.5436309],[73.94889,18.5436482],[73.9488706,18.5436677],[73.9488533,18.5436723],[73.9488254,18.543664],[73.9488058,18.5436472],[73.9487872,18.5436487],[73.9487726,18.5436569],[73.9487585,18.5436666],[73.9487344,18.5436648],[73.9487232,18.5436533],[73.9487038,18.5436401],[73.9486888,18.5436342],[73.9486653,18.543634],[73.9486476,18.5436359],[73.9486338,18.5436394],[73.948616,18.5436305],[73.9485871,18.5436264],[73.9485603,18.5436264],[73.9485429,18.5436244],[73.9485225,18.5436197],[73.9484894,18.5436284],[73.9484728,18.5436411],[73.9484586,18.5436607],[73.9484452,18.5436817],[73.9484336,18.5436908],[73.9484204,18.5437003],[73.9483912,18.5436954],[73.9483698,18.5436875],[73.9483544,18.5436838],[73.9483457,18.5436798]]]}},{"type":"Feature","properties":{"osmId":1532293786,"id":"w1532293786","kind":"water","name":null,"source":"OPENSTREETMAP"},"geometry":{"type":"Polygon","coordinates":[[[73.868542,18.5325172],[73.8685258,18.5324777],[73.8685017,18.532442],[73.8684708,18.5324114],[73.8684341,18.5323871],[73.8683932,18.5323701],[73.8683495,18.532361],[73.8683048,18.5323601],[73.8682607,18.5323676],[73.8682191,18.532383],[73.8681814,18.5324059],[73.8681492,18.5324353],[73.8681237,18.5324701],[73.8681058,18.532509],[73.8680963,18.5325503],[73.8680955,18.5325926],[73.8681033,18.5326343],[73.8681196,18.5326737],[73.8681437,18.5327093],[73.8681746,18.5327398],[73.8682112,18.532764],[73.8682521,18.5327809],[73.8682957,18.53279],[73.8683403,18.5327909],[73.8683842,18.5327835],[73.8684258,18.5327681],[73.8684634,18.5327454],[73.8684956,18.5327161],[73.8685212,18.5326814],[73.8685392,18.5326427],[73.8685488,18.5326014],[73.8685498,18.532559],[73.868542,18.5325172]]]}},{"type":"Feature","properties":{"osmId":1532293787,"id":"w1532293787","kind":"water","name":null,"source":"OPENSTREETMAP"},"geometry":{"type":"Polygon","coordinates":[[[73.8690505,18.5325798],[73.8690343,18.5325403],[73.8690102,18.5325046],[73.8689792,18.532474],[73.8689426,18.5324497],[73.8689016,18.5324327],[73.8688579,18.5324236],[73.8688132,18.5324227],[73.8687692,18.5324302],[73.8687276,18.5324456],[73.8686899,18.5324685],[73.8686577,18.5324979],[73.8686321,18.5325327],[73.8686143,18.5325716],[73.8686048,18.5326129],[73.8686039,18.5326552],[73.8686118,18.5326969],[73.8686281,18.5327363],[73.8686522,18.5327719],[73.8686831,18.5328024],[73.8687197,18.5328266],[73.8687606,18.5328435],[73.8688041,18.5328526],[73.8688488,18.5328535],[73.8688927,18.5328461],[73.8689343,18.5328307],[73.8689719,18.5328079],[73.8690041,18.5327787],[73.8690297,18.532744],[73.8690476,18.5327053],[73.8690573,18.532664],[73.8690583,18.5326216],[73.8690505,18.5325798]]]}},{"type":"Feature","properties":{"osmId":1532293788,"id":"w1532293788","kind":"water","name":null,"source":"OPENSTREETMAP"},"geometry":{"type":"Polygon","coordinates":[[[73.8689908,18.5330571],[73.8689746,18.5330176],[73.8689505,18.5329818],[73.8689196,18.5329512],[73.8688829,18.5329269],[73.8688419,18.5329099],[73.8687983,18.5329008],[73.8687536,18.5329],[73.8687095,18.5329074],[73.8686679,18.5329229],[73.8686302,18.5329458],[73.868598,18.5329752],[73.8685725,18.53301],[73.8685546,18.5330488],[73.8685451,18.5330902],[73.8685443,18.5331325],[73.8685521,18.5331741],[73.8685684,18.5332135],[73.8685925,18.5332491],[73.8686234,18.5332796],[73.86866,18.5333038],[73.8687009,18.5333208],[73.8687445,18.5333299],[73.8687891,18.5333307],[73.868833,18.5333233],[73.8688746,18.533308],[73.8689122,18.5332852],[73.8689444,18.5332559],[73.86897,18.5332213],[73.868988,18.5331825],[73.8689976,18.5331412],[73.8689986,18.5330988],[73.8689908,18.5330571]]]}},{"type":"Feature","properties":{"osmId":1532293789,"id":"w1532293789","kind":"water","name":null,"source":"OPENSTREETMAP"},"geometry":{"type":"Polygon","coordinates":[[[73.8684936,18.5330092],[73.8684773,18.5329697],[73.8684533,18.532934],[73.8684223,18.5329033],[73.8683857,18.5328791],[73.8683447,18.532862],[73.868301,18.5328529],[73.8682563,18.5328521],[73.8682123,18.5328595],[73.8681706,18.532875],[73.868133,18.5328979],[73.8681008,18.5329273],[73.8680752,18.5329621],[73.8680574,18.533001],[73.8680479,18.5330423],[73.868047,18.5330846],[73.8680549,18.5331263],[73.8680712,18.5331656],[73.8680953,18.5332013],[73.8681262,18.5332318],[73.8681628,18.5332559],[73.8682037,18.5332729],[73.8682472,18.533282],[73.8682918,18.5332829],[73.8683358,18.5332755],[73.8683774,18.5332601],[73.868415,18.5332373],[73.8684472,18.5332081],[73.8684728,18.5331734],[73.8684907,18.5331347],[73.8685004,18.5330934],[73.8685014,18.533051],[73.8684936,18.5330092]]]}},{"type":"Feature","properties":{"osmId":1532293790,"id":"w1532293790","kind":"water","name":null,"source":"OPENSTREETMAP"},"geometry":{"type":"Polygon","coordinates":[[[73.8693822,18.5332195],[73.8693634,18.5331883],[73.8693376,18.533162],[73.8693061,18.5331421],[73.8692706,18.5331296],[73.869233,18.5331251],[73.8691953,18.5331289],[73.8691596,18.5331409],[73.8691277,18.5331603],[73.8691013,18.5331861],[73.869082,18.5332169],[73.8690706,18.5332512],[73.8690677,18.5332849],[73.8690726,18.5333184],[73.869085,18.5333501],[73.8691043,18.5333785],[73.8691297,18.5334023],[73.8691599,18.5334203],[73.8691935,18.5334316],[73.8692289,18.5334358],[73.8692644,18.5334327],[73.8692984,18.5334223],[73.8693292,18.5334052],[73.8693553,18.5333823],[73.8693756,18.5333544],[73.8693891,18.5333231],[73.8693951,18.5332898],[73.869393,18.5332539],[73.8693822,18.5332195]]]}},{"type":"Feature","properties":{"osmId":1532293791,"id":"w1532293791","kind":"water","name":null,"source":"OPENSTREETMAP"},"geometry":{"type":"Polygon","coordinates":[[[73.8694266,18.5328896],[73.8694078,18.5328584],[73.869382,18.5328322],[73.8693505,18.5328123],[73.869315,18.5327997],[73.8692774,18.5327952],[73.8692397,18.5327991],[73.869204,18.532811],[73.8691721,18.5328304],[73.8691457,18.5328562],[73.8691263,18.5328871],[73.869115,18.5329213],[73.8691121,18.532955],[73.869117,18.5329885],[73.8691294,18.5330202],[73.8691487,18.5330486],[73.8691741,18.5330724],[73.8692043,18.5330904],[73.8692379,18.5331018],[73.8692733,18.533106],[73.8693088,18.5331028],[73.8693428,18.5330925],[73.8693736,18.5330754],[73.8693997,18.5330524],[73.86942,18.5330246],[73.8694335,18.5329933],[73.8694395,18.5329599],[73.8694374,18.5329241],[73.8694266,18.5328896]]]}},{"type":"Feature","properties":{"osmId":1532293792,"id":"w1532293792","kind":"water","name":null,"source":"OPENSTREETMAP"},"geometry":{"type":"Polygon","coordinates":[[[73.8700401,18.5328998],[73.8700213,18.5328686],[73.8699955,18.5328423],[73.869964,18.5328224],[73.8699285,18.5328099],[73.8698909,18.5328054],[73.8698532,18.5328092],[73.8698175,18.5328212],[73.8697856,18.5328406],[73.8697592,18.5328664],[73.8697399,18.5328972],[73.8697285,18.5329315],[73.8697256,18.5329652],[73.8697305,18.5329987],[73.8697429,18.5330304],[73.8697623,18.5330588],[73.8697876,18.5330826],[73.8698178,18.5331006],[73.8698514,18.5331119],[73.8698868,18.5331161],[73.8699223,18.533113],[73.8699563,18.5331026],[73.8699871,18.5330855],[73.8700132,18.5330626],[73.8700335,18.5330347],[73.870047,18.5330034],[73.870053,18.5329701],[73.8700509,18.5329342],[73.8700401,18.5328998]]]}},{"type":"Feature","properties":{"osmId":1532293793,"id":"w1532293793","kind":"water","name":null,"source":"OPENSTREETMAP"},"geometry":{"type":"Polygon","coordinates":[[[73.8699407,18.5334394],[73.8699219,18.5334082],[73.869896,18.533382],[73.8698645,18.533362],[73.869829,18.5333495],[73.8697914,18.533345],[73.8697538,18.5333489],[73.869718,18.5333608],[73.8696861,18.5333802],[73.8696598,18.533406],[73.8696404,18.5334369],[73.869629,18.5334711],[73.8696261,18.5335048],[73.869631,18.5335383],[73.8696435,18.53357],[73.8696628,18.5335984],[73.8696882,18.5336222],[73.8697184,18.5336402],[73.869752,18.5336516],[73.8697874,18.5336558],[73.8698229,18.5336526],[73.8698568,18.5336423],[73.8698876,18.5336252],[73.8699138,18.5336022],[73.8699341,18.5335744],[73.8699475,18.5335431],[73.8699535,18.5335097],[73.8699514,18.5334739],[73.8699407,18.5334394]]]}},{"type":"Feature","properties":{"osmId":"r2771640","id":"r2771640_0","kind":"water","name":null,"source":"OPENSTREETMAP"},"geometry":{"type":"Polygon","coordinates":[[[73.8611742,18.531257],[73.8604523,18.5311395],[73.8597819,18.5309284],[73.8597389,18.5318971],[73.8602823,18.5321146],[73.860792,18.5326481],[73.861321,18.5334277],[73.8618163,18.5344855],[73.8622828,18.5353746],[73.8630137,18.5362911],[73.8639082,18.5371984],[73.8646824,18.5378549],[73.8655913,18.5385571],[73.8663463,18.5389537],[73.8674379,18.5394917],[73.8685583,18.5399705],[73.8692027,18.5401665],[73.8711022,18.5407045],[73.8719486,18.5409553],[73.8733576,18.5415206],[73.874305,18.5418763],[73.8746464,18.5401072],[73.8738283,18.5397973],[73.8730038,18.5395705],[73.8722206,18.5393216],[73.8715553,18.5390752],[73.8711289,18.5388313],[73.8704261,18.5383344],[73.8700211,18.5378469],[73.8696401,18.5373049],[73.8686647,18.5358412],[73.8675424,18.5345132],[73.8671136,18.5341722],[73.8669634,18.533895],[73.8667482,18.5336709],[73.8663023,18.5331619],[73.8652767,18.5326131],[73.8647573,18.5325949],[73.8642284,18.5327135],[73.8640022,18.5328091],[73.8636994,18.5327864],[73.863159,18.5327452],[73.8624809,18.5323236],[73.8622383,18.5320714],[73.8620355,18.5318605],[73.8619597,18.5318108],[73.8616365,18.5315986],[73.8613162,18.5314313],[73.8611742,18.531257]]]}},{"type":"Feature","properties":{"osmId":"r15476976","id":"r15476976_1","kind":"water","name":null,"source":"OPENSTREETMAP"},"geometry":{"type":"Polygon","coordinates":[[[73.8550453,18.5193639],[73.8550531,18.5193697],[73.8550517,18.5193801],[73.855063,18.5193792],[73.8550669,18.5193884],[73.8550765,18.519383],[73.8550841,18.5193888],[73.8550889,18.5193808],[73.8550995,18.5193823],[73.8550989,18.519372],[73.8551078,18.5193686],[73.8551022,18.519361],[73.8551085,18.519353],[73.855099,18.5193484],[73.8551011,18.5193389],[73.85509,18.5193382],[73.8550865,18.5193298],[73.8550774,18.5193345],[73.8550688,18.5193295],[73.8550644,18.5193369],[73.8550533,18.5193365],[73.8550545,18.5193468],[73.855045,18.5193494],[73.855051,18.5193579],[73.8550453,18.5193639]]]}},{"type":"Feature","properties":{"osmId":"r15768767","id":"r15768767_1","kind":"water","name":null,"source":"OPENSTREETMAP"},"geometry":{"type":"Polygon","coordinates":[[[73.8555504,18.523188],[73.8559691,18.5236191],[73.8562813,18.5239537],[73.8565585,18.5241831],[73.8570613,18.5246322],[73.8572881,18.5249138],[73.8576774,18.5251095],[73.8576048,18.5252018],[73.8576589,18.5252598],[73.8577902,18.5253866],[73.858071,18.525709],[73.8582183,18.5258612],[73.8583457,18.5260201],[73.8584323,18.5261283],[73.8585771,18.5262905],[73.8587343,18.5264784],[73.8592494,18.5270628],[73.8598552,18.527772],[73.8599176,18.5279838],[73.8600014,18.5281034],[73.8600746,18.5281131],[73.8602174,18.5280939],[73.8602975,18.5280515],[73.8603758,18.5281335],[73.8602912,18.5282438],[73.8602487,18.5283486],[73.8598718,18.528693],[73.8600874,18.5290018],[73.8600254,18.5292381],[73.8600373,18.5295646],[73.8600055,18.5299082],[73.8598807,18.5300819],[73.8599145,18.5302507],[73.8599753,18.5304035],[73.8599488,18.5305692],[73.8599877,18.5307993],[73.8597819,18.5309284],[73.8604523,18.5311408],[73.8611742,18.531257],[73.8610799,18.5309513],[73.8609996,18.5306913],[73.8609958,18.5306788],[73.860989,18.5304208],[73.8609252,18.5300425],[73.8609021,18.5299053],[73.8609009,18.5297038],[73.8608995,18.5294718],[73.8610342,18.5291827],[73.8612095,18.5289473],[73.8612623,18.5287221],[73.8612613,18.5286897],[73.8612479,18.528266],[73.8610999,18.5279984],[73.8609187,18.527664],[73.8605405,18.5271732],[73.8599732,18.5266143],[73.8597804,18.5263453],[73.8594856,18.5260942],[73.8592575,18.5259335],[73.8590353,18.5257],[73.8586424,18.5253357],[73.8582738,18.5249603],[73.8578513,18.5245417],[73.8573366,18.5241307],[73.8569099,18.5237024],[73.8564032,18.5232125],[73.8559212,18.5227449],[73.8558212,18.5228644],[73.8555504,18.523188]]]}}]}