{"type": "FeatureCollection", "features": [{"type": "Feature", "properties": {"osmId": 966931039, "id": "osm_tree_row_966931039", "natural": "tree_row", "source": "OPENSTREETMAP"}, "geometry": {"type": "LineString", "coordinates": [[73.854698, 18.5202424], [73.8547528, 18.5202973], [73.8548295, 18.5203742], [73.854951, 18.5204989], [73.8550441, 18.5205893], [73.8551216, 18.5206387], [73.8552105, 18.5206676], [73.8552861, 18.5206809], [73.8553668, 18.5206809], [73.8554663, 18.5206619], [73.8555756, 18.5206233], [73.8556506, 18.520586], [73.8557198, 18.5205372], [73.8557706, 18.520495], [73.8558234, 18.5204329], [73.8558466, 18.5204097], [73.8558882, 18.5203679], [73.8559358, 18.5203124], [73.8559838, 18.5202552]]}}, {"type": "Feature", "properties": {"osmId": 633197297, "id": "osm_tree_row_633197297", "natural": "tree_row", "source": "OPENSTREETMAP"}, "geometry": {"type": "LineString", "coordinates": [[73.8849791, 18.5168171], [73.8856563, 18.5168352], [73.8856971, 18.5170698]]}}, {"type": "Feature", "properties": {"osmId": 1527511239, "id": "osm_tree_row_1527511239", "natural": "tree_row", "source": "OPENSTREETMAP"}, "geometry": {"type": "LineString", "coordinates": [[73.9050401, 18.5164154], [73.9051802, 18.5161897], [73.9053751, 18.5162504]]}}, {"type": "Feature", "properties": {"osmId": 1528677677, "id": "osm_tree_row_1528677677", "natural": "tree_row", "source": "OPENSTREETMAP"}, "geometry": {"type": "LineString", "coordinates": [[73.8884492, 18.5265187], [73.8885299, 18.5261701], [73.8886258, 18.5258209], [73.8887832, 18.5253931], [73.8890311, 18.5247261]]}}, {"type": "Feature", "properties": {"osmId": 1528677679, "id": "osm_tree_row_1528677679", "natural": "tree_row", "source": "OPENSTREETMAP"}, "geometry": {"type": "LineString", "coordinates": [[73.8880202, 18.527228], [73.8880745, 18.5268164], [73.8881241, 18.5264859], [73.8881686, 18.5260495], [73.8882084, 18.5257387], [73.8882615, 18.5253977], [73.8883346, 18.5250898], [73.8883503, 18.524988]]}}, {"type": "Feature", "properties": {"osmId": 1528677680, "id": "osm_tree_row_1528677680", "natural": "tree_row", "source": "OPENSTREETMAP"}, "geometry": {"type": "LineString", "coordinates": [[73.8877883, 18.5264368], [73.8877947, 18.5258872], [73.8877891, 18.5255141], [73.8877904, 18.5253842], [73.8878431, 18.5252093], [73.8878698, 18.5250533], [73.8878795, 18.5248825], [73.8879047, 18.5246348], [73.8878512, 18.524459]]}}, {"type": "Feature", "properties": {"osmId": 1528677681, "id": "osm_tree_row_1528677681", "natural": "tree_row", "source": "OPENSTREETMAP"}, "geometry": {"type": "LineString", "coordinates": [[73.8872909, 18.5309711], [73.8873259, 18.5305715], [73.8873854, 18.5303172], [73.8874129, 18.5300588], [73.88742, 18.5298025], [73.8874712, 18.5294769], [73.8874997, 18.5292533], [73.887617, 18.5289837], [73.8877201, 18.528778], [73.8879049, 18.528412], [73.8881091, 18.5279326]]}}, {"type": "Feature", "properties": {"osmId": 359916415, "id": "osm_tree_row_359916415", "natural": "tree_row", "source": "OPENSTREETMAP"}, "geometry": {"type": "LineString", "coordinates": [[73.886136, 18.5368531], [73.8861288, 18.5368718], [73.8861298, 18.5368916], [73.8861386, 18.5369096], [73.8861541, 18.536923], [73.8861738, 18.5369298], [73.8861947, 18.5369289], [73.8862137, 18.5369205], [73.8862279, 18.5369059], [73.886235, 18.5368872], [73.8862351, 18.5368725], [73.8862252, 18.5368493], [73.8862098, 18.5368359], [73.8861901, 18.5368291], [73.8861691, 18.53683], [73.8861501, 18.5368384], [73.886136, 18.5368531]]}}]}