{"type": "FeatureCollection", "features": [{"type": "Feature", "properties": {"osmId": 1446378599, "leisure": "park", "landuse": null, "natural": null, "name": null, "id": "osm_vegetation_1446378599", "source": "OPENSTREETMAP"}, "geometry": {"type": "Polygon", "coordinates": [[[73.8573869, 18.527044], [73.8573836, 18.5270733], [73.8574129, 18.527118], [73.8574576, 18.527182], [73.8575227, 18.5272699], [73.8575739, 18.527347], [73.8576105, 18.5273701], [73.8576625, 18.5273724], [73.8576999, 18.5273493], [73.8577268, 18.5273192], [73.8577365, 18.5272753], [73.8576682, 18.5271697], [73.8575902, 18.527064], [73.8575398, 18.526987], [73.8574885, 18.5269738], [73.8574625, 18.5269715], [73.8574284, 18.5269831], [73.8574024, 18.5270047], [73.8573869, 18.527044]]]}}, {"type": "Feature", "properties": {"osmId": 940925672, "leisure": "park", "landuse": null, "natural": null, "name": "Vijaya Kailas Tikone Udyan", "id": "osm_vegetation_940925672", "source": "OPENSTREETMAP"}, "geometry": {"type": "Polygon", "coordinates": [[[73.8574261, 18.5232302], [73.8574563, 18.5230922], [73.8577293, 18.5230769], [73.8577406, 18.5227521], [73.8573262, 18.5227343], [73.8573262, 18.5226809], [73.8571187, 18.5226801], [73.8571224, 18.5225842], [73.8570218, 18.5225792], [73.8570271, 18.5224978], [73.8570325, 18.5223197], [73.8564531, 18.5223324], [73.8567817, 18.5226809], [73.8571264, 18.5231323], [73.8572189, 18.5232429], [73.8574261, 18.5232302]]]}}, {"type": "Feature", "properties": {"osmId": 1459496085, "leisure": null, "landuse": null, "natural": "wood", "name": null, "id": "osm_vegetation_1459496085", "source": "OPENSTREETMAP"}, "geometry": {"type": "Polygon", "coordinates": [[[73.8588268, 18.5449494], [73.8601009, 18.5436699], [73.8607899, 18.5422919], [73.8612995, 18.5416924], [73.8586286, 18.5411018], [73.8575999, 18.5405112], [73.8583455, 18.5448062], [73.8588268, 18.5449494]]]}}, {"type": "Feature", "properties": {"osmId": 462046043, "leisure": null, "landuse": null, "natural": "scrub", "name": null, "id": "osm_vegetation_462046043", "source": "OPENSTREETMAP"}, "geometry": {"type": "Polygon", "coordinates": [[[73.8602998, 18.5310778], [73.8601459, 18.5309647], [73.860114, 18.5308946], [73.860107, 18.5308337], [73.8601428, 18.5307603], [73.8601798, 18.5306495], [73.8602023, 18.5304962], [73.8602144, 18.5304049], [73.8602254, 18.5303283], [73.8602604, 18.5302874], [73.8602997, 18.5303258], [73.8603437, 18.5303715], [73.8603897, 18.5304517], [73.8604179, 18.5306771], [73.8603879, 18.5307759], [73.8604227, 18.5308428], [73.8604389, 18.5309145], [73.8604247, 18.5310028], [73.8603407, 18.5310816], [73.8602998, 18.5310778]]]}}, {"type": "Feature", "properties": {"osmId": 359814369, "leisure": "park", "landuse": null, "natural": null, "name": "janvi parking lot", "id": "osm_vegetation_359814369", "source": "OPENSTREETMAP"}, "geometry": {"type": "Polygon", "coordinates": [[[73.8631207, 18.5402974], [73.8633235, 18.5402449], [73.8633016, 18.5401686], [73.8630988, 18.5402211], [73.8631207, 18.5402974]]]}}, {"type": "Feature", "properties": {"osmId": 359814491, "leisure": "park", "landuse": null, "natural": null, "name": "mayuri miss ki parking", "id": "osm_vegetation_359814491", "source": "OPENSTREETMAP"}, "geometry": {"type": "Polygon", "coordinates": [[[73.863123, 18.537772], [73.8632603, 18.5379274], [73.8633459, 18.5378594], [73.8632085, 18.537704], [73.863123, 18.537772]]]}}, {"type": "Feature", "properties": {"osmId": 197954187, "leisure": null, "landuse": null, "natural": "wood", "name": null, "id": "osm_vegetation_197954187", "source": "OPENSTREETMAP"}, "geometry": {"type": "Polygon", "coordinates": [[[73.8632188, 18.5330935], [73.8651292, 18.5331273], [73.8659594, 18.5335844], [73.866736, 18.5345324], [73.8660844, 18.5343969], [73.8649595, 18.53427], [73.8642811, 18.5340415], [73.8635491, 18.5336013], [73.8632188, 18.5330935]]]}}, {"type": "Feature", "properties": {"osmId": 1459188502, "leisure": "park", "landuse": null, "natural": null, "name": "yuvi parking", "id": "osm_vegetation_1459188502", "source": "OPENSTREETMAP"}, "geometry": {"type": "Polygon", "coordinates": [[[73.8633138, 18.5388892], [73.8635643, 18.5388262], [73.863681, 18.5387968], [73.8636646, 18.5387366], [73.8632985, 18.5388299], [73.8633138, 18.5388892]]]}}, {"type": "Feature", "properties": {"osmId": 61458970, "leisure": null, "landuse": null, "natural": "wood", "name": null, "id": "osm_vegetation_61458970", "source": "OPENSTREETMAP"}, "geometry": {"type": "Polygon", "coordinates": [[[73.8640918, 18.5349661], [73.8645779, 18.5359043], [73.865007, 18.5365147], [73.865801, 18.5373284], [73.8668524, 18.5378981], [73.8676678, 18.538366], [73.8685261, 18.5387322], [73.8693415, 18.5389967], [73.8704358, 18.5391594], [73.8703285, 18.5390374], [73.8696848, 18.5384677], [73.8688694, 18.5373691], [73.8683759, 18.5365757], [73.8679682, 18.5360264], [73.867303, 18.535355], [73.8668739, 18.5348464], [73.8659083, 18.5346023], [73.8652239, 18.5345805], [73.8647379, 18.5345224], [73.8644268, 18.5345209], [73.8638891, 18.5344889], [73.8640918, 18.5349661]]]}}, {"type": "Feature", "properties": {"osmId": 1482932328, "leisure": null, "landuse": "grass", "natural": null, "name": null, "id": "osm_vegetation_1482932328", "source": "OPENSTREETMAP"}, "geometry": {"type": "Polygon", "coordinates": [[[73.8641145, 18.5277707], [73.8641338, 18.5277952], [73.8641618, 18.5278033], [73.8645425, 18.5277667], [73.8645528, 18.5277015], [73.8645537, 18.5276184], [73.8643517, 18.5276452], [73.8641953, 18.5277055], [73.8641472, 18.5277341], [73.8641145, 18.5277707]]]}}, {"type": "Feature", "properties": {"osmId": 282102067, "leisure": "park", "landuse": null, "natural": null, "name": "Chhatrapati Shahu Udyan", "id": "osm_vegetation_282102067", "source": "OPENSTREETMAP"}, "geometry": {"type": "Polygon", "coordinates": [[[73.8683419, 18.5203669], [73.867717, 18.5203589], [73.8676265, 18.5204866], [73.867555, 18.520742], [73.8675319, 18.5209455], [73.867616, 18.5213624], [73.8685228, 18.5213524], [73.8685501, 18.5206781], [73.8683924, 18.5206761], [73.8683419, 18.5203669]]]}}, {"type": "Feature", "properties": {"osmId": 551263998, "leisure": "park", "landuse": null, "natural": null, "name": "Dr Ambedkar Udyan", "id": "osm_vegetation_551263998", "source": "OPENSTREETMAP"}, "geometry": {"type": "Polygon", "coordinates": [[[73.8717196, 18.5251341], [73.8717465, 18.5250769], [73.8717867, 18.5246357], [73.8717605, 18.524506], [73.8711493, 18.5245695], [73.8711495, 18.5246497], [73.8714233, 18.5248849], [73.8717196, 18.5251341]]]}}, {"type": "Feature", "properties": {"osmId": 1532293759, "leisure": null, "landuse": "grass", "natural": null, "name": null, "id": "osm_vegetation_1532293759", "source": "OPENSTREETMAP"}, "geometry": {"type": "Polygon", "coordinates": [[[73.8728282, 18.5250029], [73.8727735, 18.52536], [73.8728904, 18.5253366], [73.8729414, 18.5252811], [73.8729752, 18.5252216], [73.8729838, 18.5251178], [73.8729693, 18.5250736], [73.8729334, 18.5250334], [73.8728282, 18.5250029]]]}}, {"type": "Feature", "properties": {"osmId": 380417660, "leisure": "park", "landuse": null, "natural": null, "name": "Jayprakash Narayan Udyan", "id": "osm_vegetation_380417660", "source": "OPENSTREETMAP"}, "geometry": {"type": "Polygon", "coordinates": [[[73.8739652, 18.5267718], [73.8748176, 18.5268953], [73.8747883, 18.5271361], [73.8742874, 18.5270515], [73.8741939, 18.5270462], [73.8740237, 18.5270753], [73.8739693, 18.5270607], [73.873933, 18.5270144], [73.873933, 18.5269641], [73.8739652, 18.5267718]]]}}, {"type": "Feature", "properties": {"osmId": 1165055827, "leisure": null, "landuse": null, "natural": "wood", "name": null, "id": "osm_vegetation_1165055827", "source": "OPENSTREETMAP"}, "geometry": {"type": "Polygon", "coordinates": [[[73.8750476, 18.5483595], [73.8769063, 18.5476297], [73.8774562, 18.5480163], [73.8779048, 18.5478872], [73.8771719, 18.5454759], [73.876909, 18.5452394], [73.8763442, 18.5455909], [73.8748169, 18.5465414], [73.8750476, 18.5483595]]]}}, {"type": "Feature", "properties": {"osmId": 662462503, "leisure": "park", "landuse": null, "natural": null, "name": "Sadhvi Savitribai Phule Udyan", "id": "osm_vegetation_662462503", "source": "OPENSTREETMAP"}, "geometry": {"type": "Polygon", "coordinates": [[[73.8754077, 18.5364065], [73.875494, 18.535945], [73.8759266, 18.5360177], [73.8758403, 18.5364792], [73.8754077, 18.5364065]]]}}, {"type": "Feature", "properties": {"osmId": 1458953901, "leisure": null, "landuse": null, "natural": "wood", "name": "forest", "id": "osm_vegetation_1458953901", "source": "OPENSTREETMAP"}, "geometry": {"type": "Polygon", "coordinates": [[[73.8773782, 18.5445119], [73.8774211, 18.544416], [73.8774046, 18.544198], [73.8777415, 18.543129], [73.8760208, 18.54251], [73.8759605, 18.5432651], [73.8762168, 18.5434519], [73.8769751, 18.5445132], [73.8770934, 18.5445872], [73.8772623, 18.5445797], [73.8773782, 18.5445119]]]}}, {"type": "Feature", "properties": {"osmId": 108557629, "leisure": "park", "landuse": null, "natural": null, "name": "Ramabai Ambedkar Udyan", "id": "osm_vegetation_108557629", "source": "OPENSTREETMAP"}, "geometry": {"type": "Polygon", "coordinates": [[[73.8774025, 18.5316954], [73.8788777, 18.5322548], [73.8787939, 18.5331675], [73.8785627, 18.5332731], [73.8774062, 18.532197], [73.8774025, 18.5316954]]]}}, {"type": "Feature", "properties": {"osmId": 1459323795, "leisure": null, "landuse": null, "natural": "wood", "name": null, "id": "osm_vegetation_1459323795", "source": "OPENSTREETMAP"}, "geometry": {"type": "Polygon", "coordinates": [[[73.8785349, 18.5444265], [73.8791801, 18.5441691], [73.8788969, 18.5439034], [73.8783218, 18.5441719], [73.8785349, 18.5444265]]]}}, {"type": "Feature", "properties": {"osmId": 532470092, "leisure": "park", "landuse": null, "natural": null, "name": "Bund Garden", "id": "osm_vegetation_532470092", "source": "OPENSTREETMAP"}, "geometry": {"type": "Polygon", "coordinates": [[[73.883298, 18.5419412], [73.8833758, 18.5410969], [73.8838921, 18.5412673], [73.8839243, 18.541288], [73.8839458, 18.5413175], [73.8839602, 18.5413477], [73.8839636, 18.5413786], [73.8839595, 18.5414135], [73.8839552, 18.5414456], [73.8838948, 18.5418255], [73.8841255, 18.5418547], [73.8841952, 18.5414479], [73.8842086, 18.5413983], [73.8842335, 18.5413608], [73.8842663, 18.5413302], [73.8843032, 18.5413112], [73.8843421, 18.5412997], [73.884383, 18.5412997], [73.8844232, 18.5413042], [73.8849181, 18.5414008], [73.8850401, 18.5414402], [73.8851072, 18.5414822], [73.8851742, 18.5415432], [73.8851997, 18.5415979], [73.8851984, 18.5416475], [73.8851917, 18.5416907], [73.8851099, 18.5421497], [73.883298, 18.5419412]]]}}, {"type": "Feature", "properties": {"osmId": 218859883, "leisure": "park", "landuse": null, "natural": null, "name": "Chima Udyan", "id": "osm_vegetation_218859883", "source": "OPENSTREETMAP"}, "geometry": {"type": "Polygon", "coordinates": [[[73.8834955, 18.5444361], [73.8841267, 18.5445003], [73.8844325, 18.544686], [73.8843776, 18.5449959], [73.8843353, 18.5450213], [73.8842705, 18.5450427], [73.8841972, 18.545056], [73.8841084, 18.5450654], [73.8835349, 18.5449839], [73.8834631, 18.5449585], [73.8834236, 18.5449198], [73.8834067, 18.5448917], [73.883394, 18.5448463], [73.8833926, 18.5447835], [73.8834955, 18.5444361]]]}}, {"type": "Feature", "properties": {"osmId": 494498097, "leisure": "park", "landuse": null, "natural": null, "name": "Tarkeshwar Mandir Hill", "id": "osm_vegetation_494498097", "source": "OPENSTREETMAP"}, "geometry": {"type": "Polygon", "coordinates": [[[73.8836889, 18.5471893], [73.8836282, 18.5475744], [73.8831099, 18.5477737], [73.8827689, 18.5480703], [73.8825261, 18.5482031], [73.8821992, 18.5480526], [73.8819984, 18.548026], [73.881877, 18.5482607], [73.8816061, 18.5481544], [73.881424, 18.5482917], [73.8811391, 18.5480172], [73.8804154, 18.5472872], [73.8805336, 18.5471801], [73.8806955, 18.546959], [73.8804993, 18.5467288], [73.8804807, 18.5463879], [73.8802201, 18.5461609], [73.8801753, 18.5458277], [73.8803085, 18.5455536], [73.8805426, 18.5454995], [73.880825, 18.5451221], [73.8809243, 18.5449224], [73.8803406, 18.5446435], [73.8801211, 18.5446213], [73.8799623, 18.5443158], [73.8800277, 18.544214], [73.8803032, 18.5441741], [73.8807749, 18.544245], [73.8813773, 18.5444132], [73.8820171, 18.544608], [73.8830165, 18.5452146], [73.8835535, 18.5452589], [73.8840252, 18.5453386], [73.8840513, 18.5457488], [73.8840501, 18.5460545], [73.8836889, 18.5471893]]]}}, {"type": "Feature", "properties": {"osmId": 178173717, "leisure": "park", "landuse": null, "natural": null, "name": null, "id": "osm_vegetation_178173717", "source": "OPENSTREETMAP"}, "geometry": {"type": "Polygon", "coordinates": [[[73.8891251, 18.5123229], [73.8888931, 18.510423], [73.8886785, 18.5101381], [73.8873889, 18.5101834], [73.8851855, 18.5103833], [73.8831387, 18.5104828], [73.8818188, 18.5106532], [73.8815736, 18.5109146], [73.8811818, 18.5136977], [73.8807145, 18.5170094], [73.880894, 18.5176447], [73.8815903, 18.5191776], [73.8824572, 18.518734], [73.8834008, 18.5200667], [73.8838355, 18.5213401], [73.8844278, 18.5214834], [73.8847338, 18.5215309], [73.8855221, 18.5219521], [73.8869786, 18.5193159], [73.8874262, 18.518616], [73.8879291, 18.5181999], [73.8885691, 18.5180392], [73.8908168, 18.5178617], [73.8905574, 18.5154254], [73.8904877, 18.5147132], [73.8895704, 18.5130295], [73.889168, 18.512709], [73.8891412, 18.512441], [73.8891251, 18.5123229]]]}}, {"type": "Feature", "properties": {"osmId": 1528677678, "leisure": null, "landuse": null, "natural": "wood", "name": null, "id": "osm_vegetation_1528677678", "source": "OPENSTREETMAP"}, "geometry": {"type": "Polygon", "coordinates": [[[73.8896952, 18.5256948], [73.8895692, 18.5256571], [73.8894101, 18.5255072], [73.8893738, 18.5253075], [73.8894397, 18.5249985], [73.8895705, 18.5249347], [73.8896212, 18.5248038], [73.8896836, 18.5246455], [73.8897313, 18.5244845], [73.8898036, 18.5244297], [73.8899098, 18.5244806], [73.8899491, 18.5245945], [73.8899858, 18.524778], [73.8899974, 18.5250088], [73.8900007, 18.5252042], [73.8899954, 18.5254285], [73.8899745, 18.5254775], [73.8898969, 18.5254654], [73.8898081, 18.5254664], [73.8897925, 18.5255235], [73.8898039, 18.5255652], [73.8898028, 18.5256716], [73.8897482, 18.5256979], [73.8896952, 18.5256948]]]}}, {"type": "Feature", "properties": {"osmId": 28217451, "leisure": "park", "landuse": null, "natural": null, "name": "Osho Teerth Park", "id": "osm_vegetation_28217451", "source": "OPENSTREETMAP"}, "geometry": {"type": "Polygon", "coordinates": [[[73.8908723, 18.5332794], [73.8902859, 18.5332871], [73.8903133, 18.5342982], [73.8903733, 18.5350387], [73.8904334, 18.5355351], [73.8904849, 18.536235], [73.8907338, 18.5370976], [73.8911201, 18.5376835], [73.8914033, 18.5382857], [73.8915235, 18.5388553], [73.8917048, 18.5395695], [73.8925647, 18.5395364], [73.8924161, 18.539132], [73.8922015, 18.5385298], [73.8920299, 18.5380172], [73.8918067, 18.5375452], [73.8916193, 18.5374203], [73.891472, 18.5371708], [73.891163, 18.5368209], [73.8910342, 18.5364466], [73.8910342, 18.5361373], [73.8910342, 18.5355758], [73.8910342, 18.5351364], [73.8910857, 18.5345423], [73.8909851, 18.5340888], [73.8909554, 18.5338575], [73.8911201, 18.533639], [73.8910777, 18.5333008], [73.8908723, 18.5332794]]]}}, {"type": "Feature", "properties": {"osmId": 1494691930, "leisure": null, "landuse": "forest", "natural": null, "name": null, "id": "osm_vegetation_1494691930", "source": "OPENSTREETMAP"}, "geometry": {"type": "Polygon", "coordinates": [[[73.892035, 18.545363], [73.8967875, 18.5448435], [73.8968138, 18.5455978], [73.8960498, 18.5458875], [73.8961078, 18.5485349], [73.8968191, 18.548505], [73.8968138, 18.5492193], [73.8940793, 18.5498037], [73.8940529, 18.5487647], [73.8929465, 18.5486298], [73.8921193, 18.5475509], [73.892035, 18.545363]]]}}, {"type": "Feature", "properties": {"osmId": 1288089790, "id": "osm_green_1288089790", "leisure": null, "landuse": null, "natural": "wood", "name": null, "source": "OPENSTREETMAP"}, "geometry": {"type": "Polygon", "coordinates": [[[73.8940689, 18.5516725], [73.8940746, 18.5516081], [73.8942161, 18.5515464], [73.8942161, 18.5514282], [73.8941765, 18.5513585], [73.894437, 18.5510766], [73.8951788, 18.5516537], [73.8951307, 18.5517369], [73.895074, 18.5517208], [73.8949325, 18.5518899], [73.8950033, 18.5519839], [73.8949211, 18.5520295], [73.8946805, 18.5518953], [73.8945446, 18.5518067], [73.8943209, 18.5518228], [73.8941454, 18.551745], [73.8940689, 18.5516725]]]}}, {"type": "Feature", "properties": {"osmId": 53154871, "id": "osm_green_53154871", "leisure": "park", "landuse": null, "natural": null, "name": "Empress Botanical Garden", "source": "OPENSTREETMAP"}, "geometry": {"type": "Polygon", "coordinates": [[[73.8945834, 18.515223], [73.8957821, 18.5152832], [73.8961723, 18.5153398], [73.8964411, 18.5154047], [73.8965071, 18.5151923], [73.896593, 18.5149583], [73.8968504, 18.514704], [73.8964886, 18.5147107], [73.8963426, 18.5141909], [73.8965728, 18.5141189], [73.8973332, 18.5141444], [73.8976444, 18.5141037], [73.8978268, 18.5139003], [73.8979555, 18.5136968], [73.8980735, 18.5134018], [73.8985539, 18.5134741], [73.8989905, 18.513436], [73.899079, 18.5134497], [73.8991474, 18.5143193], [73.8992563, 18.5144651], [73.8993749, 18.5144322], [73.8995326, 18.5142542], [73.8996726, 18.5140581], [73.8998392, 18.5138719], [73.9000937, 18.5135204], [73.9002713, 18.5133093], [73.9003482, 18.5128047], [73.9001227, 18.5118147], [73.9001021, 18.5110139], [73.8993464, 18.5110498], [73.8980259, 18.5110496], [73.8976507, 18.5110431], [73.8974228, 18.5110067], [73.8972534, 18.5109586], [73.8969576, 18.5116827], [73.8968103, 18.5119608], [73.8963003, 18.5125388], [73.8956444, 18.5133306], [73.8945834, 18.515223]]]}}, {"type": "Feature", "properties": {"osmId": 292610072, "leisure": "park", "landuse": null, "natural": null, "name": "Shahu Modak Udyan", "id": "osm_vegetation_292610072", "source": "OPENSTREETMAP"}, "geometry": {"type": "Polygon", "coordinates": [[[73.8957235, 18.5336884], [73.8956824, 18.5330112], [73.8962232, 18.5329817], [73.8962724, 18.533792], [73.8957235, 18.5336884]]]}}, {"type": "Feature", "properties": {"osmId": 1459715609, "id": "osm_green_1459715609", "leisure": null, "landuse": null, "natural": "wood", "name": null, "source": "OPENSTREETMAP"}, "geometry": {"type": "Polygon", "coordinates": [[[73.8961123, 18.5198572], [73.8959931, 18.5182638], [73.8940525, 18.5164648], [73.8946054, 18.5154677], [73.8958413, 18.5155294], [73.8963183, 18.5157041], [73.8966652, 18.5196825], [73.8961123, 18.5198572]]]}}, {"type": "Feature", "properties": {"osmId": 218691434, "leisure": "park", "landuse": null, "natural": null, "name": "Damodar Wagaskar Garden", "id": "osm_vegetation_218691434", "source": "OPENSTREETMAP"}, "geometry": {"type": "Polygon", "coordinates": [[[73.8973243, 18.5378184], [73.8984008, 18.5377996], [73.8984028, 18.5380184], [73.8985898, 18.5380052], [73.8986177, 18.5384976], [73.8973601, 18.5385598], [73.8973243, 18.5378184]]]}}, {"type": "Feature", "properties": {"osmId": 527746888, "leisure": "park", "landuse": null, "natural": null, "name": "Meera Nagar Park", "id": "osm_vegetation_527746888", "source": "OPENSTREETMAP"}, "geometry": {"type": "Polygon", "coordinates": [[[73.8998241, 18.5380135], [73.8994041, 18.5380337], [73.8994059, 18.5380929], [73.8994139, 18.5382427], [73.8998425, 18.5382138], [73.8998295, 18.5380825], [73.8998241, 18.5380135]]]}}, {"type": "Feature", "properties": {"osmId": 291949171, "leisure": "park", "landuse": null, "natural": null, "name": null, "id": "osm_vegetation_291949171", "source": "OPENSTREETMAP"}, "geometry": {"type": "Polygon", "coordinates": [[[73.9003654, 18.5223384], [73.9002478, 18.5220336], [73.9003039, 18.5218598], [73.9003791, 18.5214979], [73.89994, 18.5214797], [73.8999455, 18.5223994], [73.9003654, 18.5223384]]]}}, {"type": "Feature", "properties": {"osmId": 462489943, "id": "osm_green_462489943", "leisure": "park", "landuse": null, "natural": null, "name": null, "source": "OPENSTREETMAP"}, "geometry": {"type": "Polygon", "coordinates": [[[73.9006333, 18.553283], [73.9010595, 18.5516285], [73.9019188, 18.5515665], [73.9018768, 18.5511061], [73.9023718, 18.5510618], [73.9024405, 18.5523397], [73.9024886, 18.5532356], [73.9024745, 18.5539174], [73.9006333, 18.553283]]]}}, {"type": "Feature", "properties": {"osmId": 361306709, "id": "osm_green_361306709", "leisure": null, "landuse": "grass", "natural": null, "name": null, "source": "OPENSTREETMAP"}, "geometry": {"type": "Polygon", "coordinates": [[[73.9014642, 18.5532634], [73.9014127, 18.552877], [73.9016379, 18.5528501], [73.9016895, 18.5532364], [73.9014642, 18.5532634]]]}}, {"type": "Feature", "properties": {"osmId": 1462539999, "id": "osm_green_1462539999", "leisure": null, "landuse": "grass", "natural": null, "name": null, "source": "OPENSTREETMAP"}, "geometry": {"type": "Polygon", "coordinates": [[[73.9016045, 18.5520666], [73.9018288, 18.5520378], [73.9019186, 18.5519582], [73.9020271, 18.5520103], [73.902072, 18.5525318], [73.9020098, 18.5528803], [73.9019374, 18.552964], [73.9018679, 18.5528227], [73.9016827, 18.5526635], [73.9016327, 18.5525457], [73.9016045, 18.5520666]]]}}, {"type": "Feature", "properties": {"osmId": 218691432, "id": "osm_green_218691432", "leisure": "park", "landuse": null, "natural": null, "name": "Kalyani Nagar Joggers Park", "source": "OPENSTREETMAP"}, "geometry": {"type": "Polygon", "coordinates": [[[73.9024012, 18.5499442], [73.9023684, 18.5497201], [73.9033253, 18.5494296], [73.9035876, 18.5508827], [73.9024152, 18.5509588], [73.9022158, 18.5499841], [73.9024012, 18.5499442]]]}}, {"type": "Feature", "properties": {"osmId": 292054203, "leisure": "park", "landuse": null, "natural": null, "name": null, "id": "osm_vegetation_292054203", "source": "OPENSTREETMAP"}, "geometry": {"type": "Polygon", "coordinates": [[[73.9047278, 18.527541], [73.9047249, 18.526984], [73.9052977, 18.5269715], [73.905289, 18.5276048], [73.9047278, 18.527541]]]}}, {"type": "Feature", "properties": {"osmId": 25956269, "leisure": "park", "landuse": null, "natural": null, "name": "ABC Farms", "id": "osm_vegetation_25956269", "source": "OPENSTREETMAP"}, "geometry": {"type": "Polygon", "coordinates": [[[73.9054815, 18.5386999], [73.9055536, 18.5392149], [73.9056262, 18.539733], [73.9055941, 18.5397369], [73.9049205, 18.539818], [73.9047658, 18.5388686], [73.9054815, 18.5386999]]]}}, {"type": "Feature", "properties": {"osmId": 1527511238, "id": "osm_green_1527511238", "leisure": "park", "landuse": null, "natural": null, "name": null, "source": "OPENSTREETMAP"}, "geometry": {"type": "Polygon", "coordinates": [[[73.9057057, 18.5158688], [73.9054323, 18.5162616], [73.9051711, 18.5161488], [73.9053359, 18.5158668], [73.9057057, 18.5158688]]]}}, {"type": "Feature", "properties": {"osmId": 278371712, "leisure": null, "landuse": "grass", "natural": null, "name": null, "id": "osm_vegetation_278371712", "source": "OPENSTREETMAP"}, "geometry": {"type": "Polygon", "coordinates": [[[73.9058112, 18.539885], [73.9058889, 18.5403589], [73.9056203, 18.5403985], [73.9055426, 18.5399246], [73.9058112, 18.539885]]]}}, {"type": "Feature", "properties": {"osmId": 292054204, "leisure": "park", "landuse": null, "natural": null, "name": null, "id": "osm_vegetation_292054204", "source": "OPENSTREETMAP"}, "geometry": {"type": "Polygon", "coordinates": [[[73.9092917, 18.5256303], [73.9095276, 18.5256103], [73.9095066, 18.5253068], [73.9094946, 18.5245559], [73.9092391, 18.5245616], [73.9092917, 18.5256303]]]}}, {"type": "Feature", "properties": {"osmId": 699408123, "leisure": "park", "landuse": null, "natural": null, "name": "CT Lawns", "id": "osm_vegetation_699408123", "source": "OPENSTREETMAP"}, "geometry": {"type": "Polygon", "coordinates": [[[73.9120009, 18.5455232], [73.9120656, 18.5455728], [73.9121025, 18.5455085], [73.912121, 18.5454268], [73.9121364, 18.545342], [73.9120933, 18.5452982], [73.9120224, 18.5453975], [73.912004, 18.545453], [73.9120009, 18.5455232]]]}}, {"type": "Feature", "properties": {"osmId": 278371729, "leisure": null, "landuse": "grass", "natural": null, "name": null, "id": "osm_vegetation_278371729", "source": "OPENSTREETMAP"}, "geometry": {"type": "Polygon", "coordinates": [[[73.9120322, 18.5376024], [73.9119973, 18.5373888], [73.9120966, 18.5372413], [73.9122602, 18.5372134], [73.9123165, 18.5375567], [73.9120322, 18.5376024]]]}}, {"type": "Feature", "properties": {"osmId": 699408066, "leisure": "park", "landuse": null, "natural": null, "name": "CT Lawns", "id": "osm_vegetation_699408066", "source": "OPENSTREETMAP"}, "geometry": {"type": "Polygon", "coordinates": [[[73.9120623, 18.5452213], [73.9117163, 18.5456774], [73.9117683, 18.5450871], [73.9120541, 18.5450315], [73.9120623, 18.5452213]]]}}, {"type": "Feature", "properties": {"osmId": 699408067, "leisure": "park", "landuse": null, "natural": null, "name": "CT Lawns", "id": "osm_vegetation_699408067", "source": "OPENSTREETMAP"}, "geometry": {"type": "Polygon", "coordinates": [[[73.912291, 18.545507], [73.9123937, 18.545544], [73.9124397, 18.5454802], [73.9124432, 18.5454198], [73.9124503, 18.5453661], [73.9123795, 18.5449903], [73.9121565, 18.5450306], [73.9122344, 18.5453728], [73.9122486, 18.5454433], [73.912291, 18.545507]]]}}, {"type": "Feature", "properties": {"osmId": 1459190382, "id": "osm_green_1459190382", "leisure": "park", "landuse": null, "natural": null, "name": null, "source": "OPENSTREETMAP"}, "geometry": {"type": "Polygon", "coordinates": [[[73.9135539, 18.5518841], [73.9134594, 18.5515709], [73.9135773, 18.5515314], [73.9136718, 18.5518494], [73.9135539, 18.5518841]]]}}, {"type": "Feature", "properties": {"osmId": 1458943419, "id": "osm_green_1458943419", "leisure": "park", "landuse": null, "natural": null, "name": "Government  Basketball Court", "source": "OPENSTREETMAP"}, "geometry": {"type": "Polygon", "coordinates": [[[73.9150917, 18.5492852], [73.9150133, 18.5486236], [73.9147846, 18.5486487], [73.9148273, 18.5493068], [73.9150917, 18.5492852]]]}}, {"type": "Feature", "properties": {"osmId": 462026418, "id": "osm_green_462026418", "leisure": "park", "landuse": null, "natural": null, "name": "Raje Chhatrapati Shivaji Garden", "source": "OPENSTREETMAP"}, "geometry": {"type": "Polygon", "coordinates": [[[73.9185499, 18.5501799], [73.9185032, 18.5495468], [73.9182324, 18.549197], [73.9177892, 18.5492328], [73.917192, 18.5492811], [73.917116, 18.5492872], [73.9159861, 18.5493786], [73.9163457, 18.5503747], [73.9171583, 18.5502463], [73.9185499, 18.5501799]]]}}, {"type": "Feature", "properties": {"osmId": 666709062, "leisure": null, "landuse": "forest", "natural": null, "name": null, "id": "osm_vegetation_666709062", "source": "OPENSTREETMAP"}, "geometry": {"type": "Polygon", "coordinates": [[[73.9196136, 18.5333608], [73.9197975, 18.5382029], [73.9170181, 18.5383292], [73.9168915, 18.5326733], [73.9172404, 18.5324969], [73.9194422, 18.5333215], [73.9196136, 18.5333608]]]}}, {"type": "Feature", "properties": {"osmId": 265152062, "id": "osm_green_265152062", "leisure": "park", "landuse": null, "natural": null, "name": "BHO", "source": "OPENSTREETMAP"}, "geometry": {"type": "Polygon", "coordinates": [[[73.9199079, 18.5168618], [73.919994, 18.5184122], [73.9211124, 18.5183029], [73.921158, 18.5182698], [73.9211741, 18.5182139], [73.9211124, 18.5169091], [73.9210937, 18.5168379], [73.9210078, 18.5168125], [73.9199079, 18.5168618]]]}}, {"type": "Feature", "properties": {"osmId": 265090739, "id": "osm_green_265090739", "leisure": null, "landuse": "grass", "natural": null, "name": null, "source": "OPENSTREETMAP"}, "geometry": {"type": "Polygon", "coordinates": [[[73.9209881, 18.5195647], [73.9209934, 18.5196111], [73.9210069, 18.5196531], [73.9210364, 18.5197014], [73.9210913, 18.5197497], [73.9211423, 18.5197739], [73.9211906, 18.5197841], [73.9212308, 18.5197853], [73.9212724, 18.5197764], [73.9213301, 18.5197663], [73.9213918, 18.519765], [73.9214588, 18.519765], [73.9215192, 18.5197726], [73.9215876, 18.5197841], [73.9216318, 18.5197955], [73.921672, 18.5197968], [73.9217029, 18.5197879], [73.9217431, 18.5197675], [73.921774, 18.5197434], [73.9217914, 18.5197103], [73.9218021, 18.5196734], [73.9218035, 18.5196378], [73.9217874, 18.5196378], [73.9217726, 18.5195895], [73.921727, 18.5195882], [73.9217257, 18.519559], [73.9216935, 18.519559], [73.9216948, 18.5195272], [73.9210618, 18.5195094], [73.9210592, 18.5195386], [73.9210256, 18.5195374], [73.9210256, 18.5195666], [73.9209881, 18.5195647]]]}}, {"type": "Feature", "properties": {"osmId": 265090740, "id": "osm_green_265090740", "leisure": null, "landuse": "grass", "natural": null, "name": null, "source": "OPENSTREETMAP"}, "geometry": {"type": "Polygon", "coordinates": [[[73.9210659, 18.5194801], [73.9216908, 18.5194954], [73.9216908, 18.5194687], [73.921723, 18.51947], [73.921723, 18.5194433], [73.9217793, 18.519442], [73.9217954, 18.5193873], [73.9218129, 18.5193924], [73.9218129, 18.5193479], [73.9218021, 18.5193059], [73.921782, 18.5192741], [73.9217445, 18.5192423], [73.9216989, 18.5192296], [73.9216399, 18.5192245], [73.9215795, 18.519236], [73.9215138, 18.5192398], [73.921436, 18.5192436], [73.9213596, 18.5192398], [73.9212952, 18.5192233], [73.9212509, 18.5192144], [73.921196, 18.5192131], [73.921141, 18.5192245], [73.9210887, 18.5192538], [73.9210538, 18.5192868], [73.9210243, 18.5193237], [73.9210095, 18.5193606], [73.9209988, 18.5193924], [73.9209988, 18.5194204], [73.9210337, 18.5194191], [73.921031, 18.5194445], [73.9210645, 18.5194483], [73.9210659, 18.5194801]]]}}, {"type": "Feature", "properties": {"osmId": 281835483, "id": "osm_green_281835483", "leisure": null, "landuse": "grass", "natural": null, "name": null, "source": "OPENSTREETMAP"}, "geometry": {"type": "Polygon", "coordinates": [[[73.9220218, 18.517682], [73.9220584, 18.5176808], [73.9220577, 18.5176605], [73.9220768, 18.5176598], [73.9220773, 18.5176723], [73.9221258, 18.5176707], [73.9221253, 18.517658], [73.922124, 18.5176232], [73.9221508, 18.5176223], [73.9221454, 18.5174737], [73.9221212, 18.5174745], [73.92212, 18.5174429], [73.9220986, 18.5174436], [73.9220975, 18.5174135], [73.9220695, 18.5174145], [73.9220707, 18.5174468], [73.9220515, 18.5174474], [73.9220503, 18.5174156], [73.9220121, 18.5174168], [73.9220218, 18.517682]]]}}, {"type": "Feature", "properties": {"osmId": 281835504, "id": "osm_green_281835504", "leisure": null, "landuse": "grass", "natural": null, "name": null, "source": "OPENSTREETMAP"}, "geometry": {"type": "Polygon", "coordinates": [[[73.9222885, 18.5175575], [73.9225429, 18.5175475], [73.9225413, 18.5175107], [73.9222869, 18.5175207], [73.9222885, 18.5175575]]]}}, {"type": "Feature", "properties": {"osmId": 281835481, "id": "osm_green_281835481", "leisure": null, "landuse": "grass", "natural": null, "name": null, "source": "OPENSTREETMAP"}, "geometry": {"type": "Polygon", "coordinates": [[[73.9227615, 18.5173784], [73.9228994, 18.5173741], [73.9229004, 18.5174031], [73.9229316, 18.5174022], [73.9229386, 18.5176025], [73.9229166, 18.5176032], [73.9229185, 18.5176577], [73.922546, 18.5176694], [73.9225452, 18.517647], [73.9227729, 18.5176398], [73.9227696, 18.5175472], [73.9227692, 18.5175354], [73.9228665, 18.5175324], [73.9228669, 18.5175425], [73.9229223, 18.5175408], [73.9229205, 18.517488], [73.9228664, 18.5174897], [73.9228669, 18.5175038], [73.922766, 18.5175069], [73.9227615, 18.5173784]]]}}, {"type": "Feature", "properties": {"osmId": 1458948649, "leisure": "park", "landuse": null, "natural": null, "name": "Wrestling  Ground", "id": "osm_vegetation_1458948649", "source": "OPENSTREETMAP"}, "geometry": {"type": "Polygon", "coordinates": [[[73.9231942, 18.5417761], [73.9231713, 18.5417807], [73.9231511, 18.5417918], [73.9231356, 18.5418085], [73.9231265, 18.5418288], [73.9231245, 18.5418509], [73.92313, 18.5418725], [73.9231423, 18.5418913], [73.9231603, 18.5419055], [73.9231837, 18.541914], [73.9232088, 18.5419145], [73.9232325, 18.5419069], [73.9232523, 18.5418923], [73.9232657, 18.5418722], [73.9232711, 18.541849], [73.923268, 18.5418254], [73.9232568, 18.5418042], [73.9232386, 18.5417878], [73.9232174, 18.5417785], [73.9231942, 18.5417761]]]}}, {"type": "Feature", "properties": {"osmId": 281835520, "id": "osm_green_281835520", "leisure": null, "landuse": "grass", "natural": null, "name": null, "source": "OPENSTREETMAP"}, "geometry": {"type": "Polygon", "coordinates": [[[73.9238199, 18.5153547], [73.9238285, 18.5153454], [73.9238363, 18.5153417], [73.9238304, 18.5153325], [73.9238177, 18.5153285], [73.9238125, 18.5153244], [73.923808, 18.5153186], [73.9238047, 18.515313], [73.9238044, 18.5153075], [73.923805, 18.5153001], [73.9238089, 18.5152948], [73.9238135, 18.5152911], [73.9238177, 18.5152886], [73.9238236, 18.515288], [73.9238301, 18.5152889], [73.9238347, 18.515292], [73.9238392, 18.515297], [73.9238408, 18.5153019], [73.9238408, 18.5153078], [73.9238399, 18.5153133], [73.9238369, 18.5153189], [73.9238415, 18.5153257], [73.9238483, 18.5153217], [73.9238548, 18.5153183], [73.9238636, 18.5153146], [73.9238721, 18.5153115], [73.9238877, 18.5153096], [73.9238877, 18.5153025], [73.9238832, 18.5152991], [73.9238783, 18.5152945], [73.9238763, 18.5152899], [73.923876, 18.5152837], [73.9238783, 18.5152778], [73.9238819, 18.5152738], [73.9238864, 18.515271], [73.923892, 18.5152701], [73.9238975, 18.5152704], [73.923903, 18.5152726], [73.9239069, 18.515276], [73.9239099, 18.5152815], [73.9239118, 18.5152892], [73.9239109, 18.5152936], [73.9239086, 18.515297], [73.9239053, 18.5153001], [73.9239053, 18.5153044], [73.9239118, 18.5153034], [73.923919, 18.5153025], [73.9239278, 18.5153022], [73.923933, 18.5153025], [73.9239353, 18.5153508], [73.9238199, 18.5153547]]]}}, {"type": "Feature", "properties": {"osmId": 281835512, "id": "osm_green_281835512", "leisure": null, "landuse": "grass", "natural": null, "name": null, "source": "OPENSTREETMAP"}, "geometry": {"type": "Polygon", "coordinates": [[[73.9239627, 18.5153498], [73.9239587, 18.5152988], [73.9239669, 18.5152979], [73.9239809, 18.5152982], [73.9240011, 18.5152994], [73.9240144, 18.5153019], [73.9240258, 18.5153041], [73.9240252, 18.5152982], [73.9240203, 18.5152967], [73.9240167, 18.5152923], [73.9240154, 18.5152862], [73.9240154, 18.5152781], [73.9240196, 18.515272], [73.9240261, 18.5152682], [73.9240333, 18.515267], [73.9240405, 18.5152682], [73.924047, 18.5152707], [73.9240519, 18.515275], [73.9240538, 18.5152806], [73.9240538, 18.5152868], [73.9240515, 18.5152917], [73.9240463, 18.5152954], [73.9240421, 18.515297], [73.9240411, 18.5153025], [73.9240509, 18.5153041], [73.9240613, 18.5153059], [73.9240711, 18.5153087], [73.9240805, 18.5153121], [73.9240919, 18.515318], [73.9240935, 18.5153109], [73.924089, 18.5153068], [73.9240867, 18.5153013], [73.9240867, 18.5152967], [73.9240896, 18.5152892], [73.9240942, 18.5152855], [73.9241001, 18.5152828], [73.9241088, 18.5152825], [73.9241167, 18.5152837], [73.9241212, 18.5152871], [73.9241245, 18.5152917], [73.9241261, 18.5152979], [73.9241248, 18.5153038], [73.9241215, 18.5153087], [73.924115, 18.515313], [73.9241092, 18.5153139], [73.9241095, 18.515322], [73.9241163, 18.5153266], [73.9241258, 18.5153346], [73.9241336, 18.515344], [73.9239627, 18.5153498]]]}}, {"type": "Feature", "properties": {"osmId": 470706758, "id": "osm_green_470706758", "leisure": "park", "landuse": null, "natural": null, "name": "trillium", "source": "OPENSTREETMAP"}, "geometry": {"type": "Polygon", "coordinates": [[[73.9243806, 18.5188744], [73.9243134, 18.5185489], [73.9247813, 18.5185373], [73.9247934, 18.5185885], [73.9248458, 18.518562], [73.9257707, 18.5184991], [73.9257602, 18.5185554], [73.925844, 18.5185653], [73.925844, 18.5188896], [73.9249365, 18.5189227], [73.9248982, 18.5188797], [73.924783, 18.5188929], [73.924769, 18.5188631], [73.9246678, 18.5188664], [73.9243806, 18.5188744]]]}}, {"type": "Feature", "properties": {"osmId": 265093809, "id": "osm_green_265093809", "leisure": null, "landuse": "grass", "natural": null, "name": null, "source": "OPENSTREETMAP"}, "geometry": {"type": "Polygon", "coordinates": [[[73.9243837, 18.5166536], [73.9244066, 18.5166332], [73.9244589, 18.516623], [73.9245179, 18.5166192], [73.9246131, 18.5166459], [73.9246506, 18.5165696], [73.9246077, 18.5165505], [73.9246091, 18.5164895], [73.9246037, 18.5164386], [73.9245635, 18.5164463], [73.924546, 18.5163954], [73.9245192, 18.5163674], [73.9244924, 18.5163458], [73.9244696, 18.51637], [73.9244387, 18.5163598], [73.9243972, 18.5163598], [73.9243744, 18.5163623], [73.9243529, 18.5163814], [73.9243234, 18.516389], [73.924302, 18.5163992], [73.9242491, 18.5164251], [73.9243837, 18.5166536]]]}}, {"type": "Feature", "properties": {"osmId": 87218843, "id": "osm_green_87218843", "leisure": "park", "landuse": null, "natural": null, "name": "Aditi Garden", "source": "OPENSTREETMAP"}, "geometry": {"type": "Polygon", "coordinates": [[[73.9245912, 18.5154527], [73.9246362, 18.5155817], [73.9246629, 18.5156339], [73.924685, 18.5156771], [73.9247049, 18.5157105], [73.92474, 18.5157695], [73.9247489, 18.5157825], [73.9248012, 18.5158584], [73.9248536, 18.515925], [73.924868, 18.5159434], [73.9249025, 18.515982], [73.9249403, 18.5160244], [73.9249755, 18.5160641], [73.9250031, 18.5160863], [73.9250179, 18.5161009], [73.9251004, 18.5161726], [73.9251792, 18.5162329], [73.9251875, 18.5162393], [73.9252787, 18.5163005], [73.9253739, 18.5163563], [73.9254726, 18.5164063], [73.9255744, 18.5164503], [73.9256789, 18.5164882], [73.9257857, 18.5165198], [73.9258945, 18.5165449], [73.9260046, 18.5165636], [73.9261157, 18.5165756], [73.9262275, 18.516581], [73.9262939, 18.5165802], [73.9263394, 18.5165797], [73.9263919, 18.516576], [73.9264509, 18.5165718], [73.9265618, 18.5165572], [73.9266714, 18.5165361], [73.9267795, 18.5165085], [73.9268855, 18.5164745], [73.926989, 18.5164343], [73.9270896, 18.5163879], [73.9271871, 18.5163357], [73.9272232, 18.5163134], [73.9272808, 18.5162778], [73.92731, 18.5162571], [73.9273705, 18.5162144], [73.9274559, 18.5161458], [73.9274855, 18.5161188], [73.9275365, 18.5160723], [73.9276121, 18.5159941], [73.9276824, 18.5159115], [73.9277471, 18.515825], [73.9278059, 18.5157347], [73.9278586, 18.5156411], [73.9278806, 18.5155955], [73.9279051, 18.5155446], [73.927945, 18.5154455], [73.9279783, 18.5153442], [73.9280048, 18.5152411], [73.9280245, 18.5151367], [73.9280372, 18.5150312], [73.9280429, 18.5149249], [73.9280427, 18.514884], [73.9280415, 18.5148194], [73.9280354, 18.5147421], [73.9280332, 18.5147135], [73.9280178, 18.5146083], [73.9279955, 18.5145043], [73.9279664, 18.5144019], [73.9279305, 18.5143014], [73.9278881, 18.5142032], [73.9278393, 18.5141078], [73.9277842, 18.5140154], [73.9277231, 18.5139265], [73.9276563, 18.5138414], [73.9276244, 18.5138058], [73.9275839, 18.5137605], [73.9275063, 18.513684], [73.9274239, 18.5136124], [73.9273555, 18.51356], [73.9273368, 18.5135457], [73.9272456, 18.5134844], [73.9271503, 18.5134286], [73.9270517, 18.5133786], [73.9269498, 18.5133345], [73.9268729, 18.5133067], [73.9268454, 18.5132967], [73.926773, 18.5132753], [73.9267385, 18.5132651], [73.9266496, 18.5132445], [73.9266299, 18.51324], [73.9265197, 18.5132213], [73.9264085, 18.5132093], [73.9262968, 18.5132039], [73.9262387, 18.5132046], [73.9262086, 18.5132049], [73.926185, 18.5132051], [73.9261393, 18.5132084], [73.92611, 18.5132105], [73.9260733, 18.5132131], [73.9259852, 18.5132246], [73.9259625, 18.5132276], [73.9258528, 18.5132488], [73.9258377, 18.5132526], [73.9257622, 18.5132719], [73.9257448, 18.5132764], [73.9256975, 18.5132916], [73.9256388, 18.5133104], [73.9255952, 18.5133273], [73.9255353, 18.5133506], [73.925488, 18.5133723], [73.9254346, 18.5133969], [73.9253372, 18.5134492], [73.9253184, 18.5134608], [73.9252435, 18.5135071], [73.9252085, 18.5135318], [73.9251537, 18.5135705], [73.9251038, 18.5136106], [73.9250684, 18.5136391], [73.9250026, 18.5136991], [73.9249878, 18.5137126], [73.9249403, 18.5137618], [73.9249122, 18.5137908], [73.9248642, 18.5138471], [73.9248418, 18.5138734], [73.9248111, 18.5139146], [73.9247772, 18.51396], [73.9247241, 18.5140414], [73.9247184, 18.5140502], [73.9246876, 18.5141048], [73.9246656, 18.5141438], [73.9246458, 18.5141803], [73.9246164, 18.5142343], [73.9246486, 18.5142476], [73.9247075, 18.514272], [73.9247716, 18.5142985], [73.9249113, 18.5143563], [73.9248624, 18.5155073], [73.9245912, 18.5154527]]]}}, {"type": "Feature", "properties": {"osmId": 265093810, "id": "osm_green_265093810", "leisure": null, "landuse": "grass", "natural": null, "name": null, "source": "OPENSTREETMAP"}, "geometry": {"type": "Polygon", "coordinates": [[[73.9246748, 18.5167019], [73.9247552, 18.5166637], [73.92477, 18.5166955], [73.9248411, 18.5166904], [73.9248987, 18.5167044], [73.9248907, 18.5167286], [73.9249296, 18.51674], [73.9249685, 18.5167642], [73.9249993, 18.5167858], [73.9249738, 18.5168176], [73.9249859, 18.5168443], [73.9249886, 18.5168824], [73.9249645, 18.5169359], [73.9249309, 18.5169931], [73.9248926, 18.5170469], [73.9245807, 18.5168453], [73.9246037, 18.5168176], [73.9246238, 18.5167998], [73.9246533, 18.5167883], [73.9246989, 18.5167845], [73.9246936, 18.5167413], [73.9246748, 18.5167019]]]}}, {"type": "Feature", "properties": {"osmId": 279220214, "leisure": null, "landuse": "grass", "natural": null, "name": null, "id": "osm_vegetation_279220214", "source": "OPENSTREETMAP"}, "geometry": {"type": "Polygon", "coordinates": [[[73.9251366, 18.5200664], [73.92509, 18.5203977], [73.9252808, 18.5204484], [73.9252965, 18.520452], [73.9253075, 18.5204556], [73.9253127, 18.520461], [73.9253199, 18.5204723], [73.9253208, 18.5204886], [73.9253285, 18.5205081], [73.9253437, 18.520528], [73.9253604, 18.520542], [73.9253838, 18.5205528], [73.9254071, 18.5205596], [73.9254334, 18.5205641], [73.9254563, 18.5205637], [73.9254763, 18.5205592], [73.9254915, 18.5205519], [73.9255087, 18.5205393], [73.9255202, 18.5205275], [73.9255292, 18.5205081], [73.9255383, 18.5204918], [73.9255483, 18.5204782], [73.9255617, 18.5204692], [73.9255793, 18.5204615], [73.9255984, 18.5204597], [73.9256179, 18.5204642], [73.9256351, 18.5204764], [73.9256542, 18.5204936], [73.9256661, 18.5204981], [73.9257181, 18.5205008], [73.925768, 18.5201226], [73.9251366, 18.5200664]]]}}, {"type": "Feature", "properties": {"osmId": 281835485, "id": "osm_green_281835485", "leisure": null, "landuse": "grass", "natural": null, "name": null, "source": "OPENSTREETMAP"}, "geometry": {"type": "Polygon", "coordinates": [[[73.9251877, 18.5168431], [73.9252156, 18.5167973], [73.9252638, 18.5167997], [73.925329, 18.516817], [73.9253667, 18.5168454], [73.9254293, 18.5168961], [73.9254722, 18.5169196], [73.9255338, 18.5169461], [73.9255486, 18.5169395], [73.9255477, 18.516929], [73.92555, 18.5169194], [73.9255559, 18.5169133], [73.9255679, 18.5169094], [73.9255781, 18.5169103], [73.9255909, 18.5169172], [73.925596, 18.5169269], [73.9255946, 18.5169378], [73.9255896, 18.5169465], [73.9255785, 18.5169526], [73.9255684, 18.5169544], [73.9255332, 18.5169989], [73.9251877, 18.5168431]]]}}, {"type": "Feature", "properties": {"osmId": 469351046, "id": "osm_green_469351046", "leisure": "park", "landuse": null, "natural": null, "name": null, "source": "OPENSTREETMAP"}, "geometry": {"type": "Polygon", "coordinates": [[[73.9252025, 18.5162771], [73.9257891, 18.5165335], [73.9266395, 18.5165615], [73.9271387, 18.5163804], [73.9274559, 18.5161458], [73.9265626, 18.5163483], [73.9258836, 18.5163097], [73.9252025, 18.5162771]]]}}, {"type": "Feature", "properties": {"osmId": 279220190, "leisure": null, "landuse": "grass", "natural": null, "name": null, "id": "osm_vegetation_279220190", "source": "OPENSTREETMAP"}, "geometry": {"type": "Polygon", "coordinates": [[[73.9252867, 18.5204616], [73.9252619, 18.5205611], [73.9253764, 18.5205914], [73.9253814, 18.5205842], [73.9253811, 18.5205727], [73.9253727, 18.5205685], [73.9253595, 18.5205615], [73.9253406, 18.5205493], [73.9253258, 18.5205327], [73.9253153, 18.5205129], [73.9253099, 18.520493], [73.9253089, 18.5204806], [73.9253052, 18.5204729], [73.9252971, 18.5204662], [73.9252867, 18.5204616]]]}}, {"type": "Feature", "properties": {"osmId": 279220209, "leisure": null, "landuse": "grass", "natural": null, "name": null, "id": "osm_vegetation_279220209", "source": "OPENSTREETMAP"}, "geometry": {"type": "Polygon", "coordinates": [[[73.9254105, 18.5205952], [73.9254114, 18.5205894], [73.9254176, 18.5205839], [73.9254291, 18.5205835], [73.9254524, 18.520583], [73.9254744, 18.520579], [73.9254949, 18.520569], [73.9255158, 18.5205564], [73.9255354, 18.5205387], [73.9255445, 18.5205184], [73.9255514, 18.5205028], [73.9255588, 18.5204921], [73.9255685, 18.5204838], [73.92558, 18.5204777], [73.9255919, 18.5204761], [73.9256034, 18.5204793], [73.925622, 18.5204912], [73.9256358, 18.5205028], [73.9256513, 18.52051], [73.9256737, 18.5205157], [73.9258718, 18.520533], [73.9259149, 18.5205529], [73.92589, 18.520581], [73.925863, 18.5206059], [73.9258293, 18.5206239], [73.9257828, 18.5206418], [73.9257288, 18.5206507], [73.925656, 18.5206507], [73.9254105, 18.5205952]]]}}, {"type": "Feature", "properties": {"osmId": 588507948, "leisure": "park", "landuse": null, "natural": null, "name": "Shri Bhairavnath Udayan", "id": "osm_vegetation_588507948", "source": "OPENSTREETMAP"}, "geometry": {"type": "Polygon", "coordinates": [[[73.9255717, 18.5435155], [73.9255543, 18.5432599], [73.9256482, 18.5432396], [73.9256455, 18.5430311], [73.9257434, 18.5429904], [73.9257327, 18.5428518], [73.9257984, 18.5428416], [73.9258426, 18.5430209], [73.925915, 18.5430527], [73.9259955, 18.543059], [73.9259995, 18.543485], [73.9259645, 18.5435433], [73.925969, 18.5435485], [73.9255717, 18.5435155]]]}}, {"type": "Feature", "properties": {"osmId": 469351177, "id": "osm_green_469351177", "leisure": "park", "landuse": null, "natural": null, "name": null, "source": "OPENSTREETMAP"}, "geometry": {"type": "Polygon", "coordinates": [[[73.9260281, 18.5153851], [73.9257833, 18.5151779], [73.9257076, 18.5148486], [73.9257974, 18.5145836], [73.9259251, 18.514401], [73.9260947, 18.514483], [73.9263815, 18.5146215], [73.9264967, 18.5146772], [73.9265431, 18.5150821], [73.9262856, 18.515189], [73.9260281, 18.5153851]]]}}, {"type": "Feature", "properties": {"osmId": 469351564, "id": "osm_green_469351564", "leisure": "park", "landuse": null, "natural": null, "name": null, "source": "OPENSTREETMAP"}, "geometry": {"type": "Polygon", "coordinates": [[[73.9260281, 18.5153851], [73.92613, 18.515428], [73.926232, 18.5154331], [73.9264206, 18.5154382], [73.9266214, 18.5154975], [73.9267201, 18.515601], [73.9267577, 18.5157739], [73.9268274, 18.5158655], [73.9269454, 18.5159418], [73.9270903, 18.5159774], [73.9272083, 18.5159621], [73.927333, 18.5159114], [73.9273585, 18.5159011], [73.9274121, 18.5157892], [73.9274336, 18.5156773], [73.927418, 18.5155368], [73.9273907, 18.5154738], [73.9273317, 18.5153975], [73.9271761, 18.5152602], [73.9270936, 18.5152262], [73.9269574, 18.5151819], [73.926822, 18.5151457], [73.9266611, 18.5151076], [73.9265431, 18.5150821], [73.9264036, 18.5151432], [73.9262856, 18.515189], [73.9260281, 18.5153851]]]}}, {"type": "Feature", "properties": {"osmId": 281835494, "id": "osm_green_281835494", "leisure": null, "landuse": "grass", "natural": null, "name": null, "source": "OPENSTREETMAP"}, "geometry": {"type": "Polygon", "coordinates": [[[73.9260866, 18.5170341], [73.9260834, 18.5170076], [73.926056, 18.5169928], [73.926026, 18.516986], [73.9259687, 18.5169779], [73.9259049, 18.5169804], [73.9258854, 18.516981], [73.9258782, 18.5169656], [73.9258411, 18.5169724], [73.9257968, 18.5169786], [73.9257473, 18.5169829], [73.9257115, 18.5169835], [73.9257082, 18.5169724], [73.9257167, 18.5169637], [73.9257185, 18.5169588], [73.9257182, 18.516952], [73.9257159, 18.5169424], [73.9257087, 18.5169369], [73.9256964, 18.5169332], [73.9256879, 18.5169325], [73.9256785, 18.5169353], [73.9256726, 18.5169415], [73.9256703, 18.5169483], [73.9256693, 18.5169585], [73.9256723, 18.5169715], [73.9256798, 18.5169798], [73.9256889, 18.5169943], [73.9256905, 18.5170358], [73.9260866, 18.5170341]]]}}, {"type": "Feature", "properties": {"osmId": 469351190, "id": "osm_green_469351190", "leisure": "park", "landuse": null, "natural": null, "name": null, "source": "OPENSTREETMAP"}, "geometry": {"type": "Polygon", "coordinates": [[[73.9265431, 18.5150821], [73.9264967, 18.5146772], [73.9271533, 18.5144539], [73.926983, 18.5146396], [73.9269454, 18.5147973], [73.9269454, 18.514899], [73.9270152, 18.515072], [73.9270795, 18.5151635], [73.9271119, 18.5151959], [73.9271761, 18.5152602], [73.9268757, 18.5151584], [73.9265431, 18.5150821]]]}}, {"type": "Feature", "properties": {"osmId": 265157654, "id": "osm_green_265157654", "leisure": null, "landuse": "grass", "natural": null, "name": null, "source": "OPENSTREETMAP"}, "geometry": {"type": "Polygon", "coordinates": [[[73.926668, 18.5169545], [73.9266821, 18.5169381], [73.9267009, 18.5169279], [73.9267364, 18.5169203], [73.9267847, 18.5169196], [73.9268001, 18.5169216], [73.9268021, 18.5169057], [73.9268759, 18.5169107], [73.9268712, 18.5169545], [73.926668, 18.5169545]]]}}, {"type": "Feature", "properties": {"osmId": 265157651, "id": "osm_green_265157651", "leisure": null, "landuse": "grass", "natural": null, "name": null, "source": "OPENSTREETMAP"}, "geometry": {"type": "Polygon", "coordinates": [[[73.9269557, 18.5169545], [73.9269678, 18.5168923], [73.926961, 18.5168809], [73.926959, 18.5168688], [73.9269651, 18.516858], [73.9269731, 18.5168542], [73.9269852, 18.5168535], [73.9269932, 18.5168567], [73.9269986, 18.5168643], [73.9270013, 18.5168739], [73.9269979, 18.516884], [73.9269885, 18.5168917], [73.9269778, 18.5169545], [73.9269557, 18.5169545]]]}}, {"type": "Feature", "properties": {"osmId": 281835457, "id": "osm_green_281835457", "leisure": null, "landuse": "grass", "natural": null, "name": null, "source": "OPENSTREETMAP"}, "geometry": {"type": "Polygon", "coordinates": [[[73.927106, 18.5180915], [73.9271427, 18.5180545], [73.9271961, 18.5180872], [73.9272404, 18.5181434], [73.9272066, 18.5182061], [73.9271923, 18.5181961], [73.9271887, 18.5181755], [73.9271793, 18.5181611], [73.9271652, 18.518147], [73.9271523, 18.5181376], [73.9271385, 18.5181357], [73.9271319, 18.5181173], [73.9271232, 18.5181065], [73.927106, 18.5180915]]]}}, {"type": "Feature", "properties": {"osmId": 265157652, "id": "osm_green_265157652", "leisure": null, "landuse": "grass", "natural": null, "name": null, "source": "OPENSTREETMAP"}, "geometry": {"type": "Polygon", "coordinates": [[[73.927135, 18.5169063], [73.9270992, 18.5168637], [73.9270864, 18.5168624], [73.9270771, 18.5168561], [73.927073, 18.5168446], [73.927075, 18.5168344], [73.9270831, 18.5168255], [73.9270952, 18.5168249], [73.9271086, 18.5168275], [73.9271139, 18.5168357], [73.9271159, 18.5168472], [73.9271159, 18.5168522], [73.927154, 18.5168954], [73.927135, 18.5169063]]]}}, {"type": "Feature", "properties": {"osmId": 265157653, "id": "osm_green_265157653", "leisure": null, "landuse": "grass", "natural": null, "name": null, "source": "OPENSTREETMAP"}, "geometry": {"type": "Polygon", "coordinates": [[[73.9271649, 18.5168892], [73.9271394, 18.5168586], [73.9272045, 18.5168141], [73.9272387, 18.5167868], [73.9272702, 18.5167537], [73.9273017, 18.5167238], [73.9273453, 18.5166965], [73.9273969, 18.5166748], [73.9274459, 18.5166679], [73.9274787, 18.5167106], [73.9271649, 18.5168892]]]}}, {"type": "Feature", "properties": {"osmId": 281835449, "id": "osm_green_281835449", "leisure": null, "landuse": "grass", "natural": null, "name": null, "source": "OPENSTREETMAP"}, "geometry": {"type": "Polygon", "coordinates": [[[73.9272924, 18.5180338], [73.9272572, 18.5180202], [73.9272142, 18.5179955], [73.9271739, 18.5179535], [73.9271517, 18.5179177], [73.9272598, 18.5178164], [73.927605, 18.5178115], [73.9276936, 18.5179363], [73.9275711, 18.5180264], [73.9275034, 18.5179375], [73.9273497, 18.5179363], [73.9272924, 18.5180338]]]}}, {"type": "Feature", "properties": {"osmId": 281835452, "id": "osm_green_281835452", "leisure": null, "landuse": "grass", "natural": null, "name": null, "source": "OPENSTREETMAP"}, "geometry": {"type": "Polygon", "coordinates": [[[73.9274226, 18.5182417], [73.9274166, 18.5181483], [73.9273281, 18.5181446], [73.9273313, 18.5181125], [73.9273066, 18.5181051], [73.9272346, 18.518235], [73.9272593, 18.518237], [73.9272588, 18.5182187], [73.927284, 18.5182146], [73.9273045, 18.5182189], [73.927325, 18.51823], [73.9273409, 18.5182453], [73.9274226, 18.5182417]]]}}, {"type": "Feature", "properties": {"osmId": 281835479, "id": "osm_green_281835479", "leisure": null, "landuse": "grass", "natural": null, "name": null, "source": "OPENSTREETMAP"}, "geometry": {"type": "Polygon", "coordinates": [[[73.9274552, 18.5182402], [73.9274531, 18.5181465], [73.9274935, 18.5181452], [73.9275384, 18.518131], [73.9275326, 18.5181063], [73.9275664, 18.5180927], [73.9276402, 18.5182081], [73.9276251, 18.5182108], [73.9276198, 18.5182241], [73.9275937, 18.5182238], [73.9275938, 18.5182137], [73.9275772, 18.5182062], [73.9275648, 18.5182054], [73.9275498, 18.5182063], [73.92753, 18.518215], [73.9275155, 18.5182254], [73.9275051, 18.518238], [73.9274552, 18.5182402]]]}}, {"type": "Feature", "properties": {"osmId": 281835505, "id": "osm_green_281835505", "leisure": null, "landuse": "grass", "natural": null, "name": null, "source": "OPENSTREETMAP"}, "geometry": {"type": "Polygon", "coordinates": [[[73.9275414, 18.5175103], [73.9272626, 18.5175214], [73.9271871, 18.5174226], [73.9276039, 18.5174028], [73.9275414, 18.5175103]]]}}, {"type": "Feature", "properties": {"osmId": 265157657, "id": "osm_green_265157657", "leisure": null, "landuse": "grass", "natural": null, "name": null, "source": "OPENSTREETMAP"}, "geometry": {"type": "Polygon", "coordinates": [[[73.9276236, 18.51653], [73.9276242, 18.5165382], [73.927622, 18.5165462], [73.927617, 18.516553], [73.92761, 18.5165578], [73.9276017, 18.5165602], [73.927593, 18.5165599], [73.927585, 18.5165568], [73.9275784, 18.5165514], [73.9275743, 18.5165445], [73.9275726, 18.5165368], [73.9275736, 18.516529], [73.9275773, 18.5165218], [73.9275831, 18.5165162], [73.9275905, 18.5165125], [73.9275987, 18.5165113], [73.9276069, 18.5165127], [73.9276142, 18.5165164], [73.9276201, 18.5165225], [73.9276236, 18.51653]]]}}, {"type": "Feature", "properties": {"osmId": 265157658, "id": "osm_green_265157658", "leisure": null, "landuse": "grass", "natural": null, "name": null, "source": "OPENSTREETMAP"}, "geometry": {"type": "Polygon", "coordinates": [[[73.9276639, 18.5164687], [73.9276694, 18.5164749], [73.9276725, 18.5164825], [73.927673, 18.5164906], [73.9276707, 18.5164984], [73.9276658, 18.5165052], [73.927659, 18.5165101], [73.9276509, 18.5165127], [73.9276423, 18.5165127], [73.9276342, 18.5165101], [73.9276273, 18.5165052], [73.9276223, 18.516498], [73.9276201, 18.5164896], [73.927621, 18.516481], [73.9276249, 18.5164732], [73.9276314, 18.5164672], [73.9276396, 18.5164635], [73.9276482, 18.5164627], [73.9276565, 18.5164645], [73.9276639, 18.5164687]]]}}, {"type": "Feature", "properties": {"osmId": 265157655, "id": "osm_green_265157655", "leisure": null, "landuse": "grass", "natural": null, "name": null, "source": "OPENSTREETMAP"}, "geometry": {"type": "Polygon", "coordinates": [[[73.9276718, 18.5167832], [73.9276246, 18.5167108], [73.9276393, 18.5167019], [73.9276339, 18.5166167], [73.9276634, 18.5165747], [73.9276916, 18.516548], [73.9277292, 18.5165213], [73.9277788, 18.5164984], [73.9278351, 18.5164781], [73.9278753, 18.5164755], [73.9279035, 18.5164793], [73.9278955, 18.5165175], [73.9278914, 18.5165505], [73.9278968, 18.5165709], [73.9279102, 18.516576], [73.9279169, 18.5165862], [73.927882, 18.5166116], [73.9278351, 18.5166383], [73.9277573, 18.5166612], [73.9277944, 18.5167117], [73.9276718, 18.5167832]]]}}, {"type": "Feature", "properties": {"osmId": 281835501, "id": "osm_green_281835501", "leisure": null, "landuse": "grass", "natural": null, "name": null, "source": "OPENSTREETMAP"}, "geometry": {"type": "Polygon", "coordinates": [[[73.927678, 18.5182114], [73.9275964, 18.5180773], [73.9276797, 18.5180748], [73.9277156, 18.5180384], [73.9277429, 18.5179958], [73.9279194, 18.5180946], [73.9279122, 18.5181495], [73.927909, 18.5182304], [73.9279188, 18.5182978], [73.9279448, 18.5183694], [73.9278535, 18.518437], [73.9278313, 18.5184035], [73.9278361, 18.5183922], [73.9278379, 18.5183778], [73.9278342, 18.5183629], [73.9278206, 18.5183471], [73.9278084, 18.5183401], [73.927793, 18.5183311], [73.9277513, 18.5182849], [73.9277823, 18.5182417], [73.9277984, 18.5182379], [73.92781, 18.5182287], [73.9278174, 18.5182228], [73.9278271, 18.5181988], [73.927826, 18.5181721], [73.9278209, 18.5181542], [73.9278429, 18.5181125], [73.9277595, 18.5180704], [73.9277341, 18.5181138], [73.9277212, 18.5181197], [73.927706, 18.5181284], [73.927697, 18.5181374], [73.9276905, 18.5181531], [73.9276887, 18.5181733], [73.9276931, 18.5181902], [73.927678, 18.5182114]]]}}, {"type": "Feature", "properties": {"osmId": 265157659, "id": "osm_green_265157659", "leisure": null, "landuse": "grass", "natural": null, "name": null, "source": "OPENSTREETMAP"}, "geometry": {"type": "Polygon", "coordinates": [[[73.9277207, 18.5164279], [73.927726, 18.5164352], [73.9277284, 18.5164437], [73.9277276, 18.5164525], [73.9277237, 18.5164605], [73.9277171, 18.5164668], [73.9277087, 18.5164706], [73.9276994, 18.5164715], [73.9276904, 18.5164693], [73.9276827, 18.5164644], [73.9276777, 18.5164582], [73.9276749, 18.5164509], [73.9276746, 18.5164432], [73.9276767, 18.5164357], [73.927681, 18.5164292], [73.9276872, 18.5164241], [73.9276948, 18.5164211], [73.9277041, 18.5164204], [73.927713, 18.5164228], [73.9277207, 18.5164279]]]}}, {"type": "Feature", "properties": {"osmId": 281835450, "id": "osm_green_281835450", "leisure": "park", "landuse": null, "natural": null, "name": "SYLVINIA", "source": "OPENSTREETMAP"}, "geometry": {"type": "Polygon", "coordinates": [[[73.9279098, 18.5190672], [73.927902, 18.5188671], [73.9280365, 18.5188652], [73.928047, 18.5188714], [73.9280561, 18.5188739], [73.9280658, 18.5188745], [73.9280782, 18.5188696], [73.9280912, 18.5188597], [73.928172, 18.5188584], [73.9281766, 18.5189461], [73.9279649, 18.5189529], [73.9279675, 18.5190332], [73.9279098, 18.5190672]]]}}, {"type": "Feature", "properties": {"osmId": 265157661, "id": "osm_green_265157661", "leisure": null, "landuse": "grass", "natural": null, "name": null, "source": "OPENSTREETMAP"}, "geometry": {"type": "Polygon", "coordinates": [[[73.9279711, 18.5162118], [73.9279709, 18.5162195], [73.9279681, 18.5162267], [73.9279629, 18.5162326], [73.927956, 18.5162367], [73.9279481, 18.5162385], [73.92794, 18.5162377], [73.9279326, 18.5162345], [73.9279267, 18.5162292], [73.9279229, 18.5162223], [73.9279216, 18.5162145], [73.9279232, 18.5162068], [73.9279273, 18.5162], [73.9279335, 18.5161949], [73.9279411, 18.5161919], [73.9279494, 18.5161915], [73.9279573, 18.5161937], [73.927964, 18.5161982], [73.9279687, 18.5162044], [73.9279711, 18.5162118]]]}}, {"type": "Feature", "properties": {"osmId": 265157656, "id": "osm_green_265157656", "leisure": null, "landuse": "grass", "natural": null, "name": null, "source": "OPENSTREETMAP"}, "geometry": {"type": "Polygon", "coordinates": [[[73.9279867, 18.5163865], [73.9279907, 18.5163407], [73.9280041, 18.516286], [73.9280282, 18.5162326], [73.9280711, 18.5161792], [73.9281154, 18.5161347], [73.9281811, 18.5161309], [73.9282598, 18.5161762], [73.9281277, 18.516381], [73.9280859, 18.5163712], [73.9280349, 18.5163725], [73.9279867, 18.5163865]]]}}, {"type": "Feature", "properties": {"osmId": 281835447, "id": "osm_green_281835447", "leisure": null, "landuse": "grass", "natural": null, "name": null, "source": "OPENSTREETMAP"}, "geometry": {"type": "Polygon", "coordinates": [[[73.9280003, 18.5174962], [73.927923, 18.5175464], [73.9279478, 18.5176146], [73.9279598, 18.5176958], [73.9279561, 18.5177613], [73.9279414, 18.5178329], [73.9281053, 18.5179141], [73.9281541, 18.5178801], [73.9282103, 18.5178469], [73.9283089, 18.5178233], [73.9283135, 18.517784], [73.9284047, 18.517777], [73.9285161, 18.5177726], [73.9285419, 18.5177805], [73.9285318, 18.5178023], [73.9285926, 18.5178207], [73.928658, 18.5178311], [73.9287059, 18.5178425], [73.928751, 18.5178914], [73.9288983, 18.5178067], [73.9288735, 18.5177473], [73.9288652, 18.5176897], [73.9288744, 18.5176076], [73.9288901, 18.5175298], [73.9289251, 18.5174346], [73.9288023, 18.5174481], [73.9288273, 18.5174602], [73.9288041, 18.5175085], [73.9288088, 18.5175204], [73.9288088, 18.5175351], [73.9288039, 18.5175499], [73.9287972, 18.5175616], [73.928785, 18.5175725], [73.9287729, 18.5175776], [73.9287504, 18.5176116], [73.9287937, 18.5176362], [73.9287868, 18.5176506], [73.9287677, 18.5176669], [73.9287774, 18.5176792], [73.9287915, 18.5176693], [73.9288126, 18.5176953], [73.9288187, 18.5177148], [73.928819, 18.5177309], [73.9288144, 18.5177418], [73.9288091, 18.5177499], [73.9288264, 18.5177709], [73.9288264, 18.5177824], [73.9288382, 18.5177982], [73.9287588, 18.5178435], [73.9287414, 18.5178288], [73.9287326, 18.517818], [73.9287258, 18.5177997], [73.928712, 18.517798], [73.928699, 18.5177887], [73.9286847, 18.5177747], [73.9286751, 18.5177605], [73.9286713, 18.5177399], [73.9286486, 18.5177245], [73.9286523, 18.5177032], [73.9286038, 18.5176998], [73.9286045, 18.517718], [73.9285794, 18.5177224], [73.9285588, 18.5177184], [73.9285382, 18.5177075], [73.9285221, 18.5176923], [73.928358, 18.5177015], [73.9283477, 18.5177142], [73.9283333, 18.5177247], [73.9283136, 18.5177337], [73.9282987, 18.5177347], [73.9282862, 18.5177341], [73.9282695, 18.5177268], [73.9282695, 18.5177166], [73.9282434, 18.5177166], [73.9282383, 18.51773], [73.9282233, 18.5177328], [73.9281945, 18.5177168], [73.9281706, 18.5177513], [73.9281752, 18.5177682], [73.9281736, 18.5177884], [73.9281673, 18.5178041], [73.9281585, 18.5178132], [73.9281434, 18.5178221], [73.9281305, 18.5178282], [73.9281056, 18.5178719], [73.9280218, 18.5178307], [73.9280432, 18.5177887], [73.9280379, 18.5177709], [73.9280365, 18.5177442], [73.9280459, 18.5177201], [73.9280647, 18.5177048], [73.9280808, 18.5177008], [73.9281113, 18.5176572], [73.9280689, 18.5176115], [73.9280534, 18.5176027], [73.9280412, 18.5175958], [73.9280274, 18.5175802], [73.9280235, 18.5175654], [73.9280251, 18.5175509], [73.9280298, 18.5175396], [73.9280003, 18.5174962]]]}}, {"type": "Feature", "properties": {"osmId": 265157662, "id": "osm_green_265157662", "leisure": null, "landuse": "grass", "natural": null, "name": null, "source": "OPENSTREETMAP"}, "geometry": {"type": "Polygon", "coordinates": [[[73.9280126, 18.5161614], [73.9280086, 18.5161698], [73.9280018, 18.5161763], [73.927993, 18.5161804], [73.9279834, 18.5161814], [73.9279739, 18.5161792], [73.9279658, 18.5161742], [73.9279602, 18.5161674], [73.9279572, 18.5161593], [73.927957, 18.5161508], [73.9279596, 18.5161426], [73.9279649, 18.5161356], [73.9279721, 18.5161305], [73.9279807, 18.5161278], [73.9279898, 18.5161278], [73.9279983, 18.5161305], [73.9280056, 18.5161357], [73.928011, 18.5161433], [73.9280135, 18.5161522], [73.9280126, 18.5161614]]]}}, {"type": "Feature", "properties": {"osmId": 265157663, "id": "osm_green_265157663", "leisure": null, "landuse": "grass", "natural": null, "name": null, "source": "OPENSTREETMAP"}, "geometry": {"type": "Polygon", "coordinates": [[[73.9280612, 18.5160913], [73.9280637, 18.5160996], [73.9280633, 18.5161083], [73.9280598, 18.5161164], [73.9280538, 18.5161229], [73.9280458, 18.5161272], [73.9280368, 18.5161288], [73.9280278, 18.5161275], [73.9280196, 18.5161235], [73.9280135, 18.5161173], [73.9280097, 18.5161096], [73.9280088, 18.5161011], [73.9280108, 18.5160929], [73.9280154, 18.5160856], [73.9280223, 18.5160801], [73.9280307, 18.5160771], [73.9280396, 18.5160767], [73.9280484, 18.5160791], [73.9280559, 18.5160842], [73.9280612, 18.5160913]]]}}, {"type": "Feature", "properties": {"osmId": 281835455, "id": "osm_green_281835455", "leisure": null, "landuse": "grass", "natural": null, "name": null, "source": "OPENSTREETMAP"}, "geometry": {"type": "Polygon", "coordinates": [[[73.9281712, 18.5179903], [73.9282541, 18.5181205], [73.9286244, 18.5181065], [73.9287082, 18.517972], [73.9286622, 18.5179344], [73.9286152, 18.5179047], [73.9285737, 18.5178873], [73.9285194, 18.5179798], [73.9283481, 18.5179868], [73.9282845, 18.5178943], [73.9282468, 18.5179178], [73.9282062, 18.517951], [73.9281712, 18.5179903]]]}}, {"type": "Feature", "properties": {"osmId": 265157664, "id": "osm_green_265157664", "leisure": null, "landuse": "grass", "natural": null, "name": null, "source": "OPENSTREETMAP"}, "geometry": {"type": "Polygon", "coordinates": [[[73.9282535, 18.5160035], [73.9281938, 18.5159796], [73.9281988, 18.5159456], [73.9282102, 18.51591], [73.928223, 18.5158782], [73.9282451, 18.5158496], [73.928282, 18.5158082], [73.9283142, 18.5157644], [73.9283437, 18.5157103], [73.9283645, 18.5156773], [73.9284107, 18.5156938], [73.9282535, 18.5160035]]]}}, {"type": "Feature", "properties": {"osmId": 281835524, "id": "osm_green_281835524", "leisure": null, "landuse": "grass", "natural": null, "name": null, "source": "OPENSTREETMAP"}, "geometry": {"type": "Polygon", "coordinates": [[[73.9283374, 18.5175093], [73.9283706, 18.517401], [73.9283393, 18.5173609], [73.9281679, 18.5173643], [73.9282472, 18.5174744], [73.9282214, 18.5175146], [73.9283374, 18.5175093]]]}}, {"type": "Feature", "properties": {"osmId": 265157665, "id": "osm_green_265157665", "leisure": null, "landuse": "grass", "natural": null, "name": null, "source": "OPENSTREETMAP"}, "geometry": {"type": "Polygon", "coordinates": [[[73.9283645, 18.5156773], [73.9283484, 18.515662], [73.928335, 18.5156645], [73.9283249, 18.5156607], [73.9283189, 18.5156518], [73.9283202, 18.5156404], [73.9283269, 18.5156302], [73.9283383, 18.5156258], [73.9283504, 18.5156283], [73.9283571, 18.5156347], [73.9283604, 18.5156486], [73.9283611, 18.515655], [73.9284195, 18.5156753], [73.9284107, 18.5156938], [73.9283645, 18.5156773]]]}}, {"type": "Feature", "properties": {"osmId": 265157667, "id": "osm_green_265157667", "leisure": null, "landuse": "grass", "natural": null, "name": null, "source": "OPENSTREETMAP"}, "geometry": {"type": "Polygon", "coordinates": [[[73.928406, 18.5155049], [73.9283792, 18.51551], [73.9283658, 18.5155075], [73.9283504, 18.5155132], [73.9283437, 18.5155247], [73.928343, 18.5155386], [73.9283517, 18.5155475], [73.9283678, 18.5155482], [73.9283786, 18.5155399], [73.9283839, 18.5155304], [73.9284449, 18.5155227], [73.9284438, 18.5155025], [73.928406, 18.5155049]]]}}, {"type": "Feature", "properties": {"osmId": 265157666, "id": "osm_green_265157666", "leisure": null, "landuse": "grass", "natural": null, "name": null, "source": "OPENSTREETMAP"}, "geometry": {"type": "Polygon", "coordinates": [[[73.9284252, 18.5151549], [73.928402, 18.5152563], [73.9283913, 18.5153918], [73.9284007, 18.5154744], [73.928406, 18.5155049], [73.9284438, 18.5155025], [73.9284252, 18.5151549]]]}}, {"type": "Feature", "properties": {"osmId": 265157668, "id": "osm_green_265157668", "leisure": null, "landuse": "grass", "natural": null, "name": null, "source": "OPENSTREETMAP"}, "geometry": {"type": "Polygon", "coordinates": [[[73.9284252, 18.5151549], [73.9284516, 18.515133], [73.9284537, 18.5151537], [73.9284252, 18.5151549]]]}}, {"type": "Feature", "properties": {"osmId": 265157669, "id": "osm_green_265157669", "leisure": null, "landuse": "grass", "natural": null, "name": null, "source": "OPENSTREETMAP"}, "geometry": {"type": "Polygon", "coordinates": [[[73.9284516, 18.515133], [73.9284507, 18.5151194], [73.928447, 18.5151149], [73.9284443, 18.5151101], [73.9284422, 18.5151046], [73.9284416, 18.515098], [73.9284435, 18.5150925], [73.9284469, 18.5150878], [73.9284534, 18.5150831], [73.9284617, 18.5150802], [73.9284683, 18.5150811], [73.9284738, 18.5150827], [73.9284779, 18.515087], [73.9284798, 18.5150923], [73.9284797, 18.5151003], [73.9284775, 18.5151075], [73.9284755, 18.5151114], [73.9284725, 18.5151145], [73.9284683, 18.515117], [73.9284693, 18.5151279], [73.9284718, 18.5151529], [73.9284537, 18.5151537], [73.9284516, 18.515133]]]}}, {"type": "Feature", "properties": {"osmId": 265157670, "id": "osm_green_265157670", "leisure": null, "landuse": "grass", "natural": null, "name": null, "source": "OPENSTREETMAP"}, "geometry": {"type": "Polygon", "coordinates": [[[73.9284693, 18.5151279], [73.9284879, 18.5151158], [73.9285207, 18.5151056], [73.9285247, 18.5151506], [73.9284718, 18.5151529], [73.9284693, 18.5151279]]]}}, {"type": "Feature", "properties": {"osmId": 265157671, "id": "osm_green_265157671", "leisure": null, "landuse": "grass", "natural": null, "name": null, "source": "OPENSTREETMAP"}, "geometry": {"type": "Polygon", "coordinates": [[[73.9285207, 18.5151056], [73.92852, 18.5150978], [73.9285161, 18.5150951], [73.9285124, 18.5150908], [73.9285111, 18.515085], [73.9285117, 18.5150801], [73.9285136, 18.5150763], [73.9285168, 18.5150725], [73.9285213, 18.5150698], [73.9285246, 18.5150684], [73.9285303, 18.5150677], [73.928535, 18.5150685], [73.9285391, 18.5150709], [73.9285417, 18.5150741], [73.9285436, 18.5150785], [73.9285443, 18.515083], [73.9285436, 18.5150873], [73.9285417, 18.5150914], [73.9285396, 18.5150941], [73.9285359, 18.5150963], [73.9285361, 18.5151011], [73.9285385, 18.51515], [73.9285247, 18.5151506], [73.9285207, 18.5151056]]]}}, {"type": "Feature", "properties": {"osmId": 265157672, "id": "osm_green_265157672", "leisure": null, "landuse": "grass", "natural": null, "name": null, "source": "OPENSTREETMAP"}, "geometry": {"type": "Polygon", "coordinates": [[[73.9285361, 18.5151011], [73.9285677, 18.5150978], [73.9285746, 18.5150965], [73.9285771, 18.515092], [73.9285798, 18.5150881], [73.9285828, 18.5150844], [73.9285863, 18.5150812], [73.9285907, 18.5150782], [73.9285946, 18.5150768], [73.9285994, 18.5150765], [73.9286033, 18.5150776], [73.9286085, 18.5150811], [73.928612, 18.5150847], [73.9286147, 18.5150889], [73.9286167, 18.5150938], [73.9286163, 18.5150995], [73.9286157, 18.5151038], [73.9286133, 18.5151078], [73.9286068, 18.5151121], [73.9286009, 18.5151135], [73.9286019, 18.5151473], [73.9285385, 18.51515], [73.9285361, 18.5151011]]]}}, {"type": "Feature", "properties": {"osmId": 265157673, "id": "osm_green_265157673", "leisure": null, "landuse": "grass", "natural": null, "name": null, "source": "OPENSTREETMAP"}, "geometry": {"type": "Polygon", "coordinates": [[[73.9286407, 18.5151456], [73.928637, 18.5150942], [73.9286518, 18.5150926], [73.9286677, 18.5150967], [73.9286796, 18.515097], [73.9287028, 18.5151037], [73.9287319, 18.5151123], [73.9287333, 18.5151126], [73.9287462, 18.5151171], [73.9287554, 18.5151203], [73.9287678, 18.5151282], [73.9287786, 18.5151397], [73.9286407, 18.5151456]]]}}, {"type": "Feature", "properties": {"osmId": 265157674, "id": "osm_green_265157674", "leisure": null, "landuse": "grass", "natural": null, "name": null, "source": "OPENSTREETMAP"}, "geometry": {"type": "Polygon", "coordinates": [[[73.928662, 18.5150942], [73.9286574, 18.51509], [73.9286545, 18.5150847], [73.9286535, 18.5150788], [73.9286545, 18.5150729], [73.9286576, 18.5150676], [73.9286622, 18.5150635], [73.9286681, 18.515061], [73.9286745, 18.5150605], [73.9286808, 18.515062], [73.9286862, 18.5150654], [73.9286901, 18.5150702], [73.9286922, 18.515076], [73.9286921, 18.5150822], [73.92869, 18.5150879], [73.9286859, 18.5150927], [73.9286804, 18.515096], [73.9286742, 18.5150974], [73.9286677, 18.5150967], [73.928662, 18.5150942]]]}}, {"type": "Feature", "properties": {"osmId": 265157675, "id": "osm_green_265157675", "leisure": null, "landuse": "grass", "natural": null, "name": null, "source": "OPENSTREETMAP"}, "geometry": {"type": "Polygon", "coordinates": [[[73.9287527, 18.5151021], [73.9287484, 18.5151056], [73.9287462, 18.5151171], [73.9287319, 18.5151123], [73.9287321, 18.515106], [73.9287277, 18.5151027], [73.9287249, 18.5150986], [73.9287236, 18.5150938], [73.9287239, 18.515089], [73.9287257, 18.5150844], [73.928729, 18.5150806], [73.9287333, 18.515078], [73.9287383, 18.5150767], [73.9287434, 18.515077], [73.9287482, 18.5150788], [73.9287525, 18.5150822], [73.9287554, 18.5150868], [73.9287564, 18.5150921], [73.9287555, 18.5150974], [73.9287527, 18.5151021]]]}}, {"type": "Feature", "properties": {"osmId": 281835488, "id": "osm_green_281835488", "leisure": null, "landuse": "grass", "natural": null, "name": null, "source": "OPENSTREETMAP"}, "geometry": {"type": "Polygon", "coordinates": [[[73.9289794, 18.5181458], [73.9289456, 18.5181465], [73.9289383, 18.5181099], [73.9289263, 18.5180566], [73.9290598, 18.5179797], [73.9291031, 18.5180112], [73.9291473, 18.5180269], [73.9291538, 18.5179998], [73.9291869, 18.5180068], [73.9292008, 18.5180243], [73.9291442, 18.5181421], [73.9291314, 18.5181383], [73.9291132, 18.5181102], [73.9291229, 18.5181021], [73.9291198, 18.5180884], [73.9291132, 18.5180734], [73.9291011, 18.5180642], [73.9290787, 18.5180539], [73.9290587, 18.5180281], [73.9289738, 18.5180755], [73.9289884, 18.5180981], [73.9289787, 18.5181102], [73.9289775, 18.518128], [73.9289794, 18.5181458]]]}}, {"type": "Feature", "properties": {"osmId": 281835490, "id": "osm_green_281835490", "leisure": "park", "landuse": null, "natural": null, "name": null, "source": "OPENSTREETMAP"}, "geometry": {"type": "Polygon", "coordinates": [[[73.9289883, 18.5175155], [73.9289763, 18.5175478], [73.9289662, 18.5175906], [73.9289643, 18.517636], [73.9289671, 18.5176832], [73.9289781, 18.5177321], [73.9289993, 18.5177897], [73.9290233, 18.5178281], [73.9290564, 18.5178674], [73.9290979, 18.5179041], [73.9291375, 18.5179294], [73.9291881, 18.5179504], [73.9292508, 18.5178377], [73.9293852, 18.5178308], [73.929458, 18.5179338], [73.9294912, 18.5179233], [73.9295252, 18.5179006], [73.929563, 18.5178701], [73.9295971, 18.517829], [73.929621, 18.5177897], [73.9296302, 18.5177556], [73.9296312, 18.5177329], [73.9296441, 18.5177312], [73.9296422, 18.5176867], [73.9294229, 18.517499], [73.9294156, 18.5174928], [73.9293767, 18.5174949], [73.9289883, 18.5175155]]]}}, {"type": "Feature", "properties": {"osmId": 281835474, "id": "osm_green_281835474", "leisure": null, "landuse": "grass", "natural": null, "name": null, "source": "OPENSTREETMAP"}, "geometry": {"type": "Polygon", "coordinates": [[[73.9293206, 18.5181679], [73.9293134, 18.5180872], [73.9292528, 18.5180859], [73.9292521, 18.5180545], [73.9292163, 18.5180483], [73.9291669, 18.5181488], [73.9291974, 18.5181578], [73.9292234, 18.5181561], [73.9292252, 18.5181349], [73.9292446, 18.5181337], [73.9292634, 18.5181366], [73.9292761, 18.5181464], [73.9292973, 18.5181607], [73.9293094, 18.5181682], [73.9293206, 18.5181679]]]}}, {"type": "Feature", "properties": {"osmId": 281835459, "id": "osm_green_281835459", "leisure": null, "landuse": "grass", "natural": null, "name": null, "source": "OPENSTREETMAP"}, "geometry": {"type": "Polygon", "coordinates": [[[73.9293505, 18.5181672], [73.9293495, 18.5180827], [73.9294094, 18.5180792], [73.9294066, 18.5180512], [73.9294425, 18.5180407], [73.9295072, 18.518142], [73.9294771, 18.5181435], [73.9294771, 18.5181349], [73.9294614, 18.518132], [73.9294426, 18.5181303], [73.9294257, 18.518136], [73.929416, 18.5181515], [73.9294081, 18.5181659], [73.9293505, 18.5181672]]]}}, {"type": "Feature", "properties": {"osmId": 281835530, "id": "osm_green_281835530", "leisure": null, "landuse": "grass", "natural": null, "name": null, "source": "OPENSTREETMAP"}, "geometry": {"type": "Polygon", "coordinates": [[[73.9294913, 18.5175023], [73.9294363, 18.517457], [73.9290312, 18.5174768], [73.9290278, 18.5173405], [73.9296218, 18.5173146], [73.9296455, 18.5173393], [73.9294913, 18.5175023]]]}}, {"type": "Feature", "properties": {"osmId": 281835470, "id": "osm_green_281835470", "leisure": null, "landuse": "grass", "natural": null, "name": null, "source": "OPENSTREETMAP"}, "geometry": {"type": "Polygon", "coordinates": [[[73.929538, 18.5181111], [73.9294714, 18.5180045], [73.9294942, 18.5179897], [73.9295131, 18.5180125], [73.9296023, 18.5179557], [73.929672, 18.5179946], [73.9296735, 18.5180407], [73.9296055, 18.5180051], [73.9295928, 18.5180252], [73.9295807, 18.5180286], [73.9295583, 18.5180453], [73.9295383, 18.5180717], [73.9295504, 18.5180861], [73.929538, 18.5181111]]]}}, {"type": "Feature", "properties": {"osmId": 281835465, "id": "osm_green_281835465", "leisure": null, "landuse": "grass", "natural": null, "name": null, "source": "OPENSTREETMAP"}, "geometry": {"type": "Polygon", "coordinates": [[[73.9297064, 18.5177314], [73.9297589, 18.5177297], [73.9297607, 18.5176406], [73.9298114, 18.5175899], [73.9298611, 18.5175873], [73.929851, 18.517403], [73.9297773, 18.5174074], [73.9296999, 18.5173192], [73.9296622, 18.5173227], [73.9296455, 18.5173393], [73.9298464, 18.5175101], [73.9297575, 18.517604], [73.9297027, 18.5176563], [73.9297064, 18.5177314]]]}}, {"type": "Feature", "properties": {"osmId": 281835496, "id": "osm_green_281835496", "leisure": null, "landuse": "grass", "natural": null, "name": null, "source": "OPENSTREETMAP"}, "geometry": {"type": "Polygon", "coordinates": [[[73.9298077, 18.5176947], [73.929817, 18.5176521], [73.9298427, 18.5176423], [73.9298077, 18.5176947]]]}}, {"type": "Feature", "properties": {"osmId": 281835965, "id": "osm_green_281835965", "leisure": null, "landuse": null, "natural": "wood", "name": null, "source": "OPENSTREETMAP"}, "geometry": {"type": "Polygon", "coordinates": [[[73.929851, 18.517403], [73.9300945, 18.5173906], [73.9300798, 18.5170262], [73.9300649, 18.5167941], [73.9297172, 18.5168102], [73.9297458, 18.5172758], [73.9296999, 18.5173192], [73.9297773, 18.5174074], [73.929851, 18.517403]]]}}, {"type": "Feature", "properties": {"osmId": 281835529, "id": "osm_green_281835529", "leisure": null, "landuse": "grass", "natural": null, "name": null, "source": "OPENSTREETMAP"}, "geometry": {"type": "Polygon", "coordinates": [[[73.9298952, 18.5175838], [73.9298869, 18.5174345], [73.9300499, 18.5174275], [73.930096, 18.5174965], [73.9300978, 18.5175463], [73.9300278, 18.5175803], [73.9298952, 18.5175838]]]}}, {"type": "Feature", "properties": {"osmId": 281835508, "id": "osm_green_281835508", "leisure": null, "landuse": "grass", "natural": null, "name": null, "source": "OPENSTREETMAP"}, "geometry": {"type": "Polygon", "coordinates": [[[73.9301151, 18.5179574], [73.9301956, 18.5179543], [73.930214, 18.5178888], [73.9302334, 18.5178224], [73.9302549, 18.5177862], [73.9302629, 18.5177726], [73.9301229, 18.5175648], [73.930099, 18.5175806], [73.9300608, 18.5176011], [73.9300217, 18.5176213], [73.9299893, 18.5176285], [73.9298751, 18.5176285], [73.9298217, 18.5177298], [73.9298263, 18.5178093], [73.9298606, 18.517808], [73.9298606, 18.5177918], [73.9298384, 18.5177788], [73.9298882, 18.5176977], [73.9299073, 18.5177087], [73.9299195, 18.5177041], [73.9299503, 18.5177059], [73.9299661, 18.5177111], [73.92998, 18.5177261], [73.9299824, 18.5177393], [73.9300247, 18.5177663], [73.9300776, 18.5177327], [73.9300775, 18.517717], [73.9300872, 18.5177084], [73.9301042, 18.5176975], [73.930123, 18.5176958], [73.9301417, 18.517697], [73.9301544, 18.5177062], [73.9301783, 18.5176923], [73.9302282, 18.5177729], [73.9302009, 18.5177919], [73.93019, 18.5178131], [73.9301803, 18.5178246], [73.9301645, 18.5178308], [73.93015, 18.5178337], [73.9301415, 18.5178245], [73.9301118, 18.5178417], [73.9300911, 18.5179042], [73.9300929, 18.5179289], [73.9301153, 18.5179307], [73.9301165, 18.5179491], [73.9301151, 18.5179574]]]}}, {"type": "Feature", "properties": {"osmId": 281835462, "id": "osm_green_281835462", "leisure": null, "landuse": "grass", "natural": null, "name": null, "source": "OPENSTREETMAP"}, "geometry": {"type": "Polygon", "coordinates": [[[73.9301286, 18.5174848], [73.9300964, 18.5174376], [73.9300945, 18.5173906], [73.9300798, 18.5170262], [73.9301443, 18.5169756], [73.9301783, 18.5170088], [73.9302078, 18.5170498], [73.9302327, 18.517104], [73.9301387, 18.5171511], [73.9301461, 18.517276], [73.9302437, 18.5173223], [73.9302281, 18.5173669], [73.9302004, 18.5174175], [73.9301286, 18.5174848]]]}}, {"type": "Feature", "properties": {"osmId": 281835517, "id": "osm_green_281835517", "leisure": null, "landuse": "grass", "natural": null, "name": null, "source": "OPENSTREETMAP"}, "geometry": {"type": "Polygon", "coordinates": [[[73.9313059, 18.5172731], [73.9314597, 18.5172679], [73.9314643, 18.5173482], [73.9313354, 18.5174879], [73.9313151, 18.5174687], [73.9313059, 18.5172731]]]}}, {"type": "Feature", "properties": {"osmId": 281835527, "id": "osm_green_281835527", "leisure": null, "landuse": "grass", "natural": null, "name": null, "source": "OPENSTREETMAP"}, "geometry": {"type": "Polygon", "coordinates": [[[73.9314625, 18.5174093], [73.9314736, 18.5175334], [73.931538, 18.5175334], [73.9315362, 18.5175683], [73.9314238, 18.5175753], [73.931352, 18.5175211], [73.9314625, 18.5174093]]]}}, {"type": "Feature", "properties": {"osmId": 469843148, "id": "osm_green_469843148", "leisure": "park", "landuse": null, "natural": null, "name": null, "source": "OPENSTREETMAP"}, "geometry": {"type": "Polygon", "coordinates": [[[73.9315972, 18.5184362], [73.9315794, 18.5182204], [73.9313176, 18.5182046], [73.9313218, 18.5179602], [73.9315584, 18.5179384], [73.9315557, 18.5178855], [73.931547, 18.5177131], [73.9313105, 18.5176878], [73.9312858, 18.5172481], [73.9315374, 18.5172447], [73.931528, 18.516862], [73.931253, 18.5168874], [73.9312392, 18.5167241], [73.9315178, 18.5166301], [73.9315087, 18.5164259], [73.9318343, 18.5164092], [73.9318431, 18.5166137], [73.9318828, 18.5184779], [73.9315972, 18.5184362]]]}}, {"type": "Feature", "properties": {"osmId": 281835518, "id": "osm_green_281835518", "leisure": null, "landuse": "grass", "natural": null, "name": null, "source": "OPENSTREETMAP"}, "geometry": {"type": "Polygon", "coordinates": [[[73.9316504, 18.5171421], [73.9315546, 18.5170373], [73.9315509, 18.5169814], [73.9317867, 18.5169709], [73.9317996, 18.5169936], [73.9316504, 18.5171421]]]}}, {"type": "Feature", "properties": {"osmId": 281835498, "id": "osm_green_281835498", "leisure": null, "landuse": "grass", "natural": null, "name": null, "source": "OPENSTREETMAP"}, "geometry": {"type": "Polygon", "coordinates": [[[73.9318346, 18.5169989], [73.9316743, 18.5171665], [73.9318622, 18.5173866], [73.9318346, 18.5169989]]]}}, {"type": "Feature", "properties": {"osmId": 1066691101, "id": "osm_green_1066691101", "leisure": "park", "landuse": null, "natural": null, "name": "play ground", "source": "OPENSTREETMAP"}, "geometry": {"type": "Polygon", "coordinates": [[[73.9401368, 18.5159011], [73.9406947, 18.515868], [73.9404373, 18.5155221], [73.9404158, 18.5153593], [73.9400939, 18.5153848], [73.9401368, 18.5159011]]]}}, {"type": "Feature", "properties": {"osmId": 469810388, "id": "osm_green_469810388", "leisure": "park", "landuse": null, "natural": null, "name": "Amanora", "source": "OPENSTREETMAP"}, "geometry": {"type": "Polygon", "coordinates": [[[73.9427106, 18.518548], [73.9428823, 18.5184819], [73.9429207, 18.5183791], [73.9428152, 18.5183318], [73.9428581, 18.5181919], [73.9429359, 18.5181767], [73.9430056, 18.5181996], [73.9431076, 18.5181055], [73.9432926, 18.5180419], [73.9432497, 18.5179452], [73.9431746, 18.5178359], [73.9430351, 18.5177647], [73.9429547, 18.5177825], [73.9428474, 18.5177952], [73.9427857, 18.5177316], [73.9426797, 18.5177268], [73.9425845, 18.517724], [73.9425175, 18.5176528], [73.9425068, 18.5175943], [73.9425175, 18.5174722], [73.9424424, 18.5173272], [73.9423579, 18.5172247], [73.9423331, 18.5171072], [73.9426658, 18.5170435], [73.9427295, 18.5173791], [73.9437429, 18.5171998], [73.9438125, 18.5170569], [73.9437559, 18.5168857], [73.9439046, 18.5168455], [73.943947, 18.5173086], [73.9441057, 18.5175106], [73.9441927, 18.5175909], [73.9442449, 18.517639], [73.9442291, 18.5175131], [73.9442193, 18.5174113], [73.9442921, 18.5172625], [73.9444547, 18.517168], [73.9446295, 18.5171391], [73.9448111, 18.5171584], [73.9449731, 18.5172702], [73.9450178, 18.5174225], [73.9450075, 18.5175711], [73.9449606, 18.5176869], [73.9448995, 18.5177875], [73.9448157, 18.5178596], [73.9448601, 18.5178657], [73.9449522, 18.517963], [73.9449522, 18.5180301], [73.9447186, 18.5181375], [73.9441594, 18.5183389], [73.9436285, 18.5185201], [73.9433383, 18.5186241], [73.9431472, 18.5186879], [73.9430374, 18.5186376], [73.9430056, 18.5185839], [73.9427225, 18.518661], [73.9427106, 18.518548]]]}}, {"type": "Feature", "properties": {"osmId": 831244668, "leisure": "park", "landuse": null, "natural": null, "name": "Amanora Victory Park", "id": "osm_vegetation_831244668", "source": "OPENSTREETMAP"}, "geometry": {"type": "Polygon", "coordinates": [[[73.9476894, 18.5237635], [73.9494819, 18.5236851], [73.9494221, 18.522844], [73.9491354, 18.5221134], [73.9471189, 18.522418], [73.9473101, 18.5238658], [73.9476894, 18.5237635]]]}}, {"type": "Feature", "properties": {"osmId": 1514375172, "leisure": "park", "landuse": null, "natural": null, "name": null, "id": "osm_vegetation_1514375172", "source": "OPENSTREETMAP"}, "geometry": {"type": "Polygon", "coordinates": [[[73.949885, 18.5435939], [73.9500321, 18.5436245], [73.9500055, 18.5443699], [73.9496918, 18.5443898], [73.949885, 18.5435939]]]}}, {"type": "Feature", "properties": {"osmId": 243776676, "id": "osm_green_243776676", "leisure": "park", "landuse": null, "natural": null, "name": null, "source": "OPENSTREETMAP"}, "geometry": {"type": "Polygon", "coordinates": [[[73.9511718, 18.550991], [73.9511236, 18.5509688], [73.9510687, 18.5509673], [73.9510035, 18.5509884], [73.9506672, 18.5512826], [73.9505773, 18.5513865], [73.9505328, 18.5514746], [73.9505211, 18.5515767], [73.9505286, 18.5516103], [73.9505369, 18.5516481], [73.9505682, 18.5516931], [73.9506196, 18.5517357], [73.9507035, 18.5517562], [73.9507773, 18.5517516], [73.9508748, 18.5517097], [73.9509492, 18.5516421], [73.9510253, 18.5515287], [73.9512151, 18.551134], [73.9512158, 18.5510687], [73.9511967, 18.5510183], [73.9511718, 18.550991]]]}}, {"type": "Feature", "properties": {"osmId": 981035034, "leisure": null, "landuse": null, "natural": "scrub", "name": null, "id": "osm_vegetation_981035034", "source": "OPENSTREETMAP"}, "geometry": {"type": "Polygon", "coordinates": [[[73.9667082, 18.530094], [73.9674982, 18.5296998], [73.9693436, 18.5284791], [73.9709357, 18.5292898], [73.9727982, 18.5280518], [73.9734849, 18.5279704], [73.9741544, 18.5280894], [73.9768323, 18.5271363], [73.9787198, 18.5303388], [73.9765906, 18.5324124], [73.9750457, 18.5347927], [73.9745092, 18.5368475], [73.9735804, 18.5393833], [73.9733991, 18.5392034], [73.9708507, 18.5415761], [73.9702346, 18.5420188], [73.9697362, 18.5422103], [73.9674783, 18.5427455], [73.9646559, 18.5432077], [73.96257, 18.5438619], [73.960371, 18.545306], [73.9588422, 18.5459577], [73.9584067, 18.5459304], [73.9584583, 18.5453712], [73.9589966, 18.5447468], [73.9598842, 18.544812], [73.9607088, 18.5444102], [73.9609837, 18.5434166], [73.9609035, 18.5432646], [73.9603423, 18.543232], [73.9602221, 18.5429171], [73.9607546, 18.5421625], [73.9603939, 18.5412015], [73.9606573, 18.5401427], [73.9598842, 18.539817], [73.9598899, 18.5389917], [73.9592829, 18.538123], [73.9586186, 18.5382153], [73.9583724, 18.5379818], [73.9587389, 18.5377918], [73.9586301, 18.5373357], [73.9583237, 18.5370913], [73.9579658, 18.5370561], [73.9582521, 18.536752], [73.9581376, 18.5365511], [73.9574131, 18.5363719], [73.9583466, 18.5362362], [73.9586959, 18.5358806], [73.9587331, 18.5352942], [73.9591397, 18.5341919], [73.9609436, 18.5339693], [73.9614018, 18.5338987], [73.9611784, 18.532373], [73.9634089, 18.5320472], [73.9636303, 18.5319602], [73.9650608, 18.5313981], [73.9652329, 18.5313305], [73.9659315, 18.5309776], [73.9659487, 18.5306409], [73.9667082, 18.530094]]]}}, {"type": "Feature", "properties": {"osmId": 910115689, "leisure": null, "landuse": null, "natural": "scrub", "name": null, "id": "osm_vegetation_910115689", "source": "OPENSTREETMAP"}, "geometry": {"type": "Polygon", "coordinates": [[[73.982664, 18.5291684], [73.9833597, 18.5300019], [73.9845141, 18.5321005], [73.983231, 18.5329113], [73.9811496, 18.5347016], [73.9801582, 18.5367391], [73.9808449, 18.5389159], [73.9808663, 18.540869], [73.979493, 18.5424151], [73.9771112, 18.5443884], [73.9747509, 18.5458939], [73.973401, 18.5414318], [73.9751315, 18.5391668], [73.9763546, 18.5355658], [73.9773845, 18.5336128], [73.9800882, 18.5309679], [73.982664, 18.5291684]]]}}]}