<?xml version="1.0" encoding="UTF-8"?>
<kml xmlns="http://www.opengis.net/kml/2.2">
<Document>
  <name>NDCI</name>
  <description><![CDATA[Continuous smoothed raster ground overlay generated with directional river gap filling, strict riverbank cutoff, and color ramp interpolation.]]></description>
  <GroundOverlay>
    <name>NDCI</name>
    <Icon><href>overlay.png</href></Icon>
    <LatLonBox>
      <north>18.5484187775</north>
      <south>18.5193828320</south>
      <east>73.9940164533</east>
      <west>73.8537286515</west>
    </LatLonBox>
  </GroundOverlay>
  <ScreenOverlay>
    <name>Classification Legend</name>
    <Icon>
      <href>legend.png</href>
    </Icon>
    <overlayXY x="0.02" y="0.05" xunits="fraction" yunits="fraction"/>
    <screenXY x="0.02" y="0.05" xunits="fraction" yunits="fraction"/>
    <rotationXY x="0" y="0" xunits="fraction" yunits="fraction"/>
    <size x="0" y="0" xunits="pixels" yunits="pixels"/>
  </ScreenOverlay>
</Document>
</kml>
