<?xml version="1.0" encoding="UTF-8"?>
<kml xmlns="http://www.opengis.net/kml/2.2">
<Document>
  <name>Silt Classification - River-wide</name>
  <description>Discrete silt classification (0=No Data, 1=Low, 2=Moderate, 3=High, 4=Very High). Green-to-red palette.</description>
  <ScreenOverlay>
    <name>Legend</name>
    <Icon><href>files/legend.png</href></Icon>
    <overlayXY x="0" y="1" xunits="fraction" yunits="fraction"/>
    <screenXY x="0.01" y="0.99" xunits="fraction" yunits="fraction"/>
    <rotationXY x="0" y="0" xunits="fraction" yunits="fraction"/>
    <size x="0" y="0" xunits="fraction" yunits="fraction"/>
  </ScreenOverlay>
  <GroundOverlay>
    <name>Silt Classification - River-wide</name>
    <description>Discrete silt classification (0=No Data, 1=Low, 2=Moderate, 3=High, 4=Very High). Green-to-red palette.</description>
    <Icon>
      <href>files/overlay.png</href>
      <viewBoundScale>0.75</viewBoundScale>
    </Icon>
    <LatLonBox>
      <north>18.56090056894914</north>
      <south>18.491460797486702</south>
      <east>74.00330293729459</east>
      <west>73.80028368308358</west>
      <rotation>0</rotation>
    </LatLonBox>
  </GroundOverlay>
</Document>
</kml>
